[
    {
        "zip": 1011,
        "city": "Budapest I. kerület"
    },
    {
        "zip": 1012,
        "city": "Budapest I. kerület"
    },
    {
        "zip": 1013,
        "city": "Budapest I. kerület"
    },
    {
        "zip": 1014,
        "city": "Budapest I. kerület"
    },
    {
        "zip": 1015,
        "city": "Budapest I. kerület"
    },
    {
        "zip": 1016,
        "city": "Budapest I. kerület"
    },
    {
        "zip": 1021,
        "city": "Budapest II. kerület"
    },
    {
        "zip": 1022,
        "city": "Budapest II. kerület"
    },
    {
        "zip": 1023,
        "city": "Budapest II. kerület"
    },
    {
        "zip": 1024,
        "city": "Budapest II. kerület"
    },
    {
        "zip": 1025,
        "city": "Budapest II. kerület"
    },
    {
        "zip": 1026,
        "city": "Budapest II. kerület"
    },
    {
        "zip": 1027,
        "city": "Budapest II. kerület"
    },
    {
        "zip": 1028,
        "city": "Budapest II. kerület"
    },
    {
        "zip": 1029,
        "city": "Budapest II. kerület"
    },
    {
        "zip": 1031,
        "city": "Budapest III. kerület"
    },
    {
        "zip": 1032,
        "city": "Budapest III. kerület"
    },
    {
        "zip": 1033,
        "city": "Budapest III. kerület"
    },
    {
        "zip": 1034,
        "city": "Budapest III. kerület"
    },
    {
        "zip": 1035,
        "city": "Budapest III. kerület"
    },
    {
        "zip": 1036,
        "city": "Budapest III. kerület"
    },
    {
        "zip": 1037,
        "city": "Budapest III. kerület"
    },
    {
        "zip": 1038,
        "city": "Budapest III. kerület"
    },
    {
        "zip": 1039,
        "city": "Budapest III. kerület"
    },
    {
        "zip": 1041,
        "city": "Budapest IV. kerület"
    },
    {
        "zip": 1042,
        "city": "Budapest IV. kerület"
    },
    {
        "zip": 1043,
        "city": "Budapest IV. kerület"
    },
    {
        "zip": 1044,
        "city": "Budapest IV. kerület"
    },
    {
        "zip": 1045,
        "city": "Budapest IV. kerület"
    },
    {
        "zip": 1046,
        "city": "Budapest IV. kerület"
    },
    {
        "zip": 1047,
        "city": "Budapest IV. kerület"
    },
    {
        "zip": 1048,
        "city": "Budapest IV. kerület"
    },
    {
        "zip": 1051,
        "city": "Budapest V. kerület"
    },
    {
        "zip": 1052,
        "city": "Budapest V. kerület"
    },
    {
        "zip": 1053,
        "city": "Budapest V. kerület"
    },
    {
        "zip": 1054,
        "city": "Budapest V. kerület"
    },
    {
        "zip": 1055,
        "city": "Budapest V. kerület"
    },
    {
        "zip": 1056,
        "city": "Budapest V. kerület"
    },
    {
        "zip": 1061,
        "city": "Budapest VI. kerület"
    },
    {
        "zip": 1062,
        "city": "Budapest VI. kerület"
    },
    {
        "zip": 1063,
        "city": "Budapest VI. kerület"
    },
    {
        "zip": 1064,
        "city": "Budapest VI. kerület"
    },
    {
        "zip": 1065,
        "city": "Budapest VI. kerület"
    },
    {
        "zip": 1066,
        "city": "Budapest VI. kerület"
    },
    {
        "zip": 1067,
        "city": "Budapest VI. kerület"
    },
    {
        "zip": 1068,
        "city": "Budapest VI. kerület"
    },
    {
        "zip": 1071,
        "city": "Budapest VII. kerület"
    },
    {
        "zip": 1072,
        "city": "Budapest VII. kerület"
    },
    {
        "zip": 1073,
        "city": "Budapest VII. kerület"
    },
    {
        "zip": 1074,
        "city": "Budapest VII. kerület"
    },
    {
        "zip": 1075,
        "city": "Budapest VII. kerület"
    },
    {
        "zip": 1076,
        "city": "Budapest VII. kerület"
    },
    {
        "zip": 1077,
        "city": "Budapest VII. kerület"
    },
    {
        "zip": 1078,
        "city": "Budapest VII. kerület"
    },
    {
        "zip": 1081,
        "city": "Budapest VIII. kerület"
    },
    {
        "zip": 1082,
        "city": "Budapest VIII. kerület"
    },
    {
        "zip": 1083,
        "city": "Budapest VIII. kerület"
    },
    {
        "zip": 1084,
        "city": "Budapest VIII. kerület"
    },
    {
        "zip": 1085,
        "city": "Budapest VIII. kerület"
    },
    {
        "zip": 1086,
        "city": "Budapest VIII. kerület"
    },
    {
        "zip": 1087,
        "city": "Budapest VIII. kerület"
    },
    {
        "zip": 1088,
        "city": "Budapest VIII. kerület"
    },
    {
        "zip": 1089,
        "city": "Budapest VIII. kerület"
    },
    {
        "zip": 1091,
        "city": "Budapest IX. kerület"
    },
    {
        "zip": 1092,
        "city": "Budapest IX. kerület"
    },
    {
        "zip": 1093,
        "city": "Budapest IX. kerület"
    },
    {
        "zip": 1094,
        "city": "Budapest IX. kerület"
    },
    {
        "zip": 1095,
        "city": "Budapest IX. kerület"
    },
    {
        "zip": 1096,
        "city": "Budapest IX. kerület"
    },
    {
        "zip": 1097,
        "city": "Budapest IX. kerület"
    },
    {
        "zip": 1098,
        "city": "Budapest IX. kerület"
    },
    {
        "zip": 1101,
        "city": "Budapest X. kerület"
    },
    {
        "zip": 1102,
        "city": "Budapest X. kerület"
    },
    {
        "zip": 1103,
        "city": "Budapest X. kerület"
    },
    {
        "zip": 1104,
        "city": "Budapest X. kerület"
    },
    {
        "zip": 1105,
        "city": "Budapest X. kerület"
    },
    {
        "zip": 1106,
        "city": "Budapest X. kerület"
    },
    {
        "zip": 1107,
        "city": "Budapest X. kerület"
    },
    {
        "zip": 1108,
        "city": "Budapest X. kerület"
    },
    {
        "zip": 1111,
        "city": "Budapest XI. kerület"
    },
    {
        "zip": 1112,
        "city": "Budapest XI. kerület"
    },
    {
        "zip": 1113,
        "city": "Budapest XI. kerület"
    },
    {
        "zip": 1114,
        "city": "Budapest XI. kerület"
    },
    {
        "zip": 1115,
        "city": "Budapest XI. kerület"
    },
    {
        "zip": 1116,
        "city": "Budapest XI. kerület"
    },
    {
        "zip": 1117,
        "city": "Budapest XI. kerület"
    },
    {
        "zip": 1118,
        "city": "Budapest XI. kerület"
    },
    {
        "zip": 1119,
        "city": "Budapest XI. kerület"
    },
    {
        "zip": 1121,
        "city": "Budapest XII. kerület"
    },
    {
        "zip": 1122,
        "city": "Budapest XII. kerület"
    },
    {
        "zip": 1123,
        "city": "Budapest XII. kerület"
    },
    {
        "zip": 1124,
        "city": "Budapest XII. kerület"
    },
    {
        "zip": 1125,
        "city": "Budapest XII. kerület"
    },
    {
        "zip": 1126,
        "city": "Budapest XII. kerület"
    },
    {
        "zip": 1131,
        "city": "Budapest XIII. kerület"
    },
    {
        "zip": 1132,
        "city": "Budapest XIII. kerület"
    },
    {
        "zip": 1133,
        "city": "Budapest XIII. kerület"
    },
    {
        "zip": 1134,
        "city": "Budapest XIII. kerület"
    },
    {
        "zip": 1135,
        "city": "Budapest XIII. kerület"
    },
    {
        "zip": 1136,
        "city": "Budapest XIII. kerület"
    },
    {
        "zip": 1137,
        "city": "Budapest XIII. kerület"
    },
    {
        "zip": 1138,
        "city": "Budapest XIII. kerület"
    },
    {
        "zip": 1139,
        "city": "Budapest XIII. kerület"
    },
    {
        "zip": 1141,
        "city": "Budapest XIV. kerület"
    },
    {
        "zip": 1142,
        "city": "Budapest XIV. kerület"
    },
    {
        "zip": 1143,
        "city": "Budapest XIV. kerület"
    },
    {
        "zip": 1144,
        "city": "Budapest XIV. kerület"
    },
    {
        "zip": 1145,
        "city": "Budapest XIV. kerület"
    },
    {
        "zip": 1146,
        "city": "Budapest XIV. kerület"
    },
    {
        "zip": 1147,
        "city": "Budapest XIV. kerület"
    },
    {
        "zip": 1148,
        "city": "Budapest XIV. kerület"
    },
    {
        "zip": 1149,
        "city": "Budapest XIV. kerület"
    },
    {
        "zip": 1151,
        "city": "Budapest XV. kerület"
    },
    {
        "zip": 1152,
        "city": "Budapest XV. kerület"
    },
    {
        "zip": 1153,
        "city": "Budapest XV. kerület"
    },
    {
        "zip": 1154,
        "city": "Budapest XV. kerület"
    },
    {
        "zip": 1155,
        "city": "Budapest XV. kerület"
    },
    {
        "zip": 1156,
        "city": "Budapest XV. kerület"
    },
    {
        "zip": 1157,
        "city": "Budapest XV. kerület"
    },
    {
        "zip": 1158,
        "city": "Budapest XV. kerület"
    },
    {
        "zip": 1161,
        "city": "Budapest XVI. kerület"
    },
    {
        "zip": 1162,
        "city": "Budapest XVI. kerület"
    },
    {
        "zip": 1163,
        "city": "Budapest XVI. kerület"
    },
    {
        "zip": 1164,
        "city": "Budapest XVI. kerület"
    },
    {
        "zip": 1165,
        "city": "Budapest XVI. kerület"
    },
    {
        "zip": 1171,
        "city": "Budapest XVII. kerület"
    },
    {
        "zip": 1172,
        "city": "Budapest XVII. kerület"
    },
    {
        "zip": 1173,
        "city": "Budapest XVII. kerület"
    },
    {
        "zip": 1174,
        "city": "Budapest XVII. kerület"
    },
    {
        "zip": 1181,
        "city": "Budapest XVIII. kerület"
    },
    {
        "zip": 1182,
        "city": "Budapest XVIII. kerület"
    },
    {
        "zip": 1183,
        "city": "Budapest XVIII. kerület"
    },
    {
        "zip": 1184,
        "city": "Budapest XVIII. kerület"
    },
    {
        "zip": 1185,
        "city": "Budapest XVIII. kerület"
    },
    {
        "zip": 1186,
        "city": "Budapest XVIII. kerület"
    },
    {
        "zip": 1188,
        "city": "Budapest XVIII. kerület"
    },
    {
        "zip": 1191,
        "city": "Budapest XIX. kerület"
    },
    {
        "zip": 1192,
        "city": "Budapest XIX. kerület"
    },
    {
        "zip": 1193,
        "city": "Budapest XIX. kerület"
    },
    {
        "zip": 1194,
        "city": "Budapest XIX. kerület"
    },
    {
        "zip": 1195,
        "city": "Budapest XIX. kerület"
    },
    {
        "zip": 1196,
        "city": "Budapest XIX. kerület"
    },
    {
        "zip": 1201,
        "city": "Budapest XX. kerület"
    },
    {
        "zip": 1202,
        "city": "Budapest XX. kerület"
    },
    {
        "zip": 1203,
        "city": "Budapest XX. kerület"
    },
    {
        "zip": 1204,
        "city": "Budapest XX. kerület"
    },
    {
        "zip": 1205,
        "city": "Budapest XX. kerület"
    },
    {
        "zip": 1211,
        "city": "Budapest XXI. kerület"
    },
    {
        "zip": 1212,
        "city": "Budapest XXI. kerület"
    },
    {
        "zip": 1213,
        "city": "Budapest XXI. kerület"
    },
    {
        "zip": 1214,
        "city": "Budapest XXI. kerület"
    },
    {
        "zip": 1215,
        "city": "Budapest XXI. kerület"
    },
    {
        "zip": 1221,
        "city": "Budapest XXII. kerület"
    },
    {
        "zip": 1222,
        "city": "Budapest XXII. kerület"
    },
    {
        "zip": 1223,
        "city": "Budapest XXII. kerület"
    },
    {
        "zip": 1224,
        "city": "Budapest XXII. kerület"
    },
    {
        "zip": 1225,
        "city": "Budapest XXII. kerület"
    },
    {
        "zip": 1237,
        "city": "Budapest XXIII. kerület"
    },
    {
        "zip": 1238,
        "city": "Budapest XXIII. kerület"
    },
    {
        "zip": 1239,
        "city": "Budapest XXIII. kerület"
    },
    {
        "zip": 1529,
        "city": "Budapest XII. kerület"
    },
    {
        "zip": 2000,
        "city": "Szentendre"
    },
    {
        "zip": 2001,
        "city": "Szentendre"
    },
    {
        "zip": 2002,
        "city": "Szentendre"
    },
    {
        "zip": 2003,
        "city": "Szentendre"
    },
    {
        "zip": 2009,
        "city": "Pilisszentlászló"
    },
    {
        "zip": 2011,
        "city": "Budakalász"
    },
    {
        "zip": 2012,
        "city": "Budakalász"
    },
    {
        "zip": 2013,
        "city": "Budakalász"
    },
    {
        "zip": 2014,
        "city": "Csobánka"
    },
    {
        "zip": 2015,
        "city": "Szigetmonostor"
    },
    {
        "zip": 2016,
        "city": "Leányfalu"
    },
    {
        "zip": 2017,
        "city": "Pócsmegyer"
    },
    {
        "zip": 2019,
        "city": "Pomáz"
    },
    {
        "zip": 2021,
        "city": "Tahitótfalu"
    },
    {
        "zip": 2022,
        "city": "Tahitótfalu"
    },
    {
        "zip": 2023,
        "city": "Dunabogdány"
    },
    {
        "zip": 2024,
        "city": "Kisoroszi"
    },
    {
        "zip": 2025,
        "city": "Visegrád"
    },
    {
        "zip": 2026,
        "city": "Visegrád"
    },
    {
        "zip": 2027,
        "city": "Dömös"
    },
    {
        "zip": 2028,
        "city": "Pilismarót"
    },
    {
        "zip": 2030,
        "city": "Érd"
    },
    {
        "zip": 2031,
        "city": "Érd"
    },
    {
        "zip": 2032,
        "city": "Érd"
    },
    {
        "zip": 2033,
        "city": "Érd"
    },
    {
        "zip": 2035,
        "city": "Érd"
    },
    {
        "zip": 2036,
        "city": "Érd"
    },
    {
        "zip": 2038,
        "city": "Sóskút"
    },
    {
        "zip": 2039,
        "city": "Pusztazámor"
    },
    {
        "zip": 2040,
        "city": "Budaörs"
    },
    {
        "zip": 2041,
        "city": "Budaörs"
    },
    {
        "zip": 2042,
        "city": "Budaörs"
    },
    {
        "zip": 2043,
        "city": "Budaörs"
    },
    {
        "zip": 2044,
        "city": "Budaörs"
    },
    {
        "zip": 2045,
        "city": "Törökbálint"
    },
    {
        "zip": 2046,
        "city": "Törökbálint"
    },
    {
        "zip": 2047,
        "city": "Törökbálint"
    },
    {
        "zip": 2049,
        "city": "Diósd"
    },
    {
        "zip": 2050,
        "city": "Diósd"
    },
    {
        "zip": 2051,
        "city": "Biatorbágy"
    },
    {
        "zip": 2052,
        "city": "Biatorbágy"
    },
    {
        "zip": 2053,
        "city": "Herceghalom"
    },
    {
        "zip": 2055,
        "city": "Herceghalom"
    },
    {
        "zip": 2056,
        "city": "Herceghalom"
    },
    {
        "zip": 2060,
        "city": "Bicske"
    },
    {
        "zip": 2061,
        "city": "Bicske"
    },
    {
        "zip": 2063,
        "city": "Bicske"
    },
    {
        "zip": 2064,
        "city": "Csabdi"
    },
    {
        "zip": 2065,
        "city": "Mány"
    },
    {
        "zip": 2066,
        "city": "Újbarok"
    },
    {
        "zip": 2066,
        "city": "Szár"
    },
    {
        "zip": 2067,
        "city": "Szárliget"
    },
    {
        "zip": 2071,
        "city": "Páty"
    },
    {
        "zip": 2072,
        "city": "Zsámbék"
    },
    {
        "zip": 2073,
        "city": "Tök"
    },
    {
        "zip": 2074,
        "city": "Perbál"
    },
    {
        "zip": 2080,
        "city": "Pilisjászfalu"
    },
    {
        "zip": 2081,
        "city": "Piliscsaba"
    },
    {
        "zip": 2082,
        "city": "Piliscsaba"
    },
    {
        "zip": 2083,
        "city": "Solymár"
    },
    {
        "zip": 2084,
        "city": "Pilisszentiván"
    },
    {
        "zip": 2085,
        "city": "Pilisvörösvár"
    },
    {
        "zip": 2086,
        "city": "Tinnye"
    },
    {
        "zip": 2087,
        "city": "Tinnye"
    },
    {
        "zip": 2089,
        "city": "Telki"
    },
    {
        "zip": 2090,
        "city": "Remeteszőlős"
    },
    {
        "zip": 2091,
        "city": "Etyek"
    },
    {
        "zip": 2092,
        "city": "Budakeszi"
    },
    {
        "zip": 2093,
        "city": "Budajenő"
    },
    {
        "zip": 2094,
        "city": "Nagykovácsi"
    },
    {
        "zip": 2095,
        "city": "Pilisszántó"
    },
    {
        "zip": 2096,
        "city": "Üröm"
    },
    {
        "zip": 2097,
        "city": "Pilisborosjenő"
    },
    {
        "zip": 2098,
        "city": "Pilisszentkereszt"
    },
    {
        "zip": 2099,
        "city": "Dobogókő"
    },
    {
        "zip": 2100,
        "city": "Gödöllő"
    },
    {
        "zip": 2101,
        "city": "Gödöllő"
    },
    {
        "zip": 2102,
        "city": "Gödöllő"
    },
    {
        "zip": 2103,
        "city": "Gödöllő"
    },
    {
        "zip": 2105,
        "city": "Gödöllő"
    },
    {
        "zip": 2111,
        "city": "Szada"
    },
    {
        "zip": 2112,
        "city": "Veresegyház"
    },
    {
        "zip": 2113,
        "city": "Erdőkertes"
    },
    {
        "zip": 2114,
        "city": "Valkó"
    },
    {
        "zip": 2115,
        "city": "Vácszentlászló"
    },
    {
        "zip": 2116,
        "city": "Zsámbok"
    },
    {
        "zip": 2117,
        "city": "Isaszeg"
    },
    {
        "zip": 2118,
        "city": "Dány"
    },
    {
        "zip": 2119,
        "city": "Pécel"
    },
    {
        "zip": 2120,
        "city": "Dunakeszi"
    },
    {
        "zip": 2121,
        "city": "Dunakeszi"
    },
    {
        "zip": 2122,
        "city": "Dunakeszi"
    },
    {
        "zip": 2123,
        "city": "Dunakeszi"
    },
    {
        "zip": 2131,
        "city": "Göd"
    },
    {
        "zip": 2132,
        "city": "Göd"
    },
    {
        "zip": 2133,
        "city": "Sződliget"
    },
    {
        "zip": 2134,
        "city": "Sződ"
    },
    {
        "zip": 2135,
        "city": "Csörög"
    },
    {
        "zip": 2141,
        "city": "Csömör"
    },
    {
        "zip": 2142,
        "city": "Nagytarcsa"
    },
    {
        "zip": 2143,
        "city": "Kistarcsa"
    },
    {
        "zip": 2144,
        "city": "Kerepes"
    },
    {
        "zip": 2145,
        "city": "Kerepes"
    },
    {
        "zip": 2146,
        "city": "Mogyoród"
    },
    {
        "zip": 2151,
        "city": "Fót"
    },
    {
        "zip": 2152,
        "city": "Fót"
    },
    {
        "zip": 2153,
        "city": "Fót"
    },
    {
        "zip": 2161,
        "city": "Csomád"
    },
    {
        "zip": 2162,
        "city": "Őrbottyán"
    },
    {
        "zip": 2163,
        "city": "Vácrátót"
    },
    {
        "zip": 2164,
        "city": "Váchartyán"
    },
    {
        "zip": 2165,
        "city": "Kisnémedi"
    },
    {
        "zip": 2166,
        "city": "Püspökszilágy"
    },
    {
        "zip": 2167,
        "city": "Vácduka"
    },
    {
        "zip": 2170,
        "city": "Aszód"
    },
    {
        "zip": 2173,
        "city": "Kartal"
    },
    {
        "zip": 2174,
        "city": "Verseg"
    },
    {
        "zip": 2175,
        "city": "Kálló"
    },
    {
        "zip": 2176,
        "city": "Erdőkürt"
    },
    {
        "zip": 2177,
        "city": "Erdőtarcsa"
    },
    {
        "zip": 2181,
        "city": "Iklad"
    },
    {
        "zip": 2182,
        "city": "Domony"
    },
    {
        "zip": 2183,
        "city": "Galgamácsa"
    },
    {
        "zip": 2184,
        "city": "Vácegres"
    },
    {
        "zip": 2185,
        "city": "Váckisújfalu"
    },
    {
        "zip": 2191,
        "city": "Bag"
    },
    {
        "zip": 2192,
        "city": "Hévízgyörk"
    },
    {
        "zip": 2193,
        "city": "Galgahévíz"
    },
    {
        "zip": 2194,
        "city": "Tura"
    },
    {
        "zip": 2200,
        "city": "Monor"
    },
    {
        "zip": 2201,
        "city": "Monor"
    },
    {
        "zip": 2202,
        "city": "Monor"
    },
    {
        "zip": 2209,
        "city": "Péteri"
    },
    {
        "zip": 2211,
        "city": "Vasad"
    },
    {
        "zip": 2212,
        "city": "Csévharaszt"
    },
    {
        "zip": 2213,
        "city": "Csévharaszt"
    },
    {
        "zip": 2214,
        "city": "Pánd"
    },
    {
        "zip": 2215,
        "city": "Káva"
    },
    {
        "zip": 2216,
        "city": "Bénye"
    },
    {
        "zip": 2217,
        "city": "Gomba"
    },
    {
        "zip": 2220,
        "city": "Vecsés"
    },
    {
        "zip": 2221,
        "city": "Vecsés"
    },
    {
        "zip": 2222,
        "city": "Vecsés"
    },
    {
        "zip": 2225,
        "city": "Üllő"
    },
    {
        "zip": 2230,
        "city": "Gyömrő"
    },
    {
        "zip": 2233,
        "city": "Ecser"
    },
    {
        "zip": 2234,
        "city": "Maglód"
    },
    {
        "zip": 2235,
        "city": "Mende"
    },
    {
        "zip": 2241,
        "city": "Sülysáp"
    },
    {
        "zip": 2242,
        "city": "Sülysáp"
    },
    {
        "zip": 2243,
        "city": "Kóka"
    },
    {
        "zip": 2244,
        "city": "Úri"
    },
    {
        "zip": 2251,
        "city": "Tápiószecső"
    },
    {
        "zip": 2252,
        "city": "Tóalmás"
    },
    {
        "zip": 2253,
        "city": "Tápióság"
    },
    {
        "zip": 2254,
        "city": "Szentmártonkáta"
    },
    {
        "zip": 2255,
        "city": "Szentlőrinckáta"
    },
    {
        "zip": 2300,
        "city": "Ráckeve"
    },
    {
        "zip": 2301,
        "city": "Ráckeve"
    },
    {
        "zip": 2309,
        "city": "Lórév"
    },
    {
        "zip": 2310,
        "city": "Szigetszentmiklós"
    },
    {
        "zip": 2311,
        "city": "Szigetszentmiklós"
    },
    {
        "zip": 2313,
        "city": "Szigetszentmiklós"
    },
    {
        "zip": 2314,
        "city": "Halásztelek"
    },
    {
        "zip": 2315,
        "city": "Szigethalom"
    },
    {
        "zip": 2316,
        "city": "Tököl"
    },
    {
        "zip": 2317,
        "city": "Szigetcsép"
    },
    {
        "zip": 2318,
        "city": "Szigetszentmárton"
    },
    {
        "zip": 2319,
        "city": "Szigetújfalu"
    },
    {
        "zip": 2321,
        "city": "Szigetbecse"
    },
    {
        "zip": 2322,
        "city": "Makád"
    },
    {
        "zip": 2330,
        "city": "Dunaharaszti"
    },
    {
        "zip": 2331,
        "city": "Dunaharaszti"
    },
    {
        "zip": 2332,
        "city": "Dunaharaszti"
    },
    {
        "zip": 2335,
        "city": "Taksony"
    },
    {
        "zip": 2336,
        "city": "Dunavarsány"
    },
    {
        "zip": 2337,
        "city": "Délegyháza"
    },
    {
        "zip": 2338,
        "city": "Áporka"
    },
    {
        "zip": 2339,
        "city": "Majosháza"
    },
    {
        "zip": 2340,
        "city": "Kiskunlacháza"
    },
    {
        "zip": 2341,
        "city": "Kiskunlacháza"
    },
    {
        "zip": 2342,
        "city": "Kiskunlacháza"
    },
    {
        "zip": 2344,
        "city": "Dömsöd"
    },
    {
        "zip": 2345,
        "city": "Apaj"
    },
    {
        "zip": 2347,
        "city": "Bugyi"
    },
    {
        "zip": 2351,
        "city": "Alsónémedi"
    },
    {
        "zip": 2360,
        "city": "Gyál"
    },
    {
        "zip": 2363,
        "city": "Felsőpakony"
    },
    {
        "zip": 2364,
        "city": "Ócsa"
    },
    {
        "zip": 2365,
        "city": "Inárcs"
    },
    {
        "zip": 2366,
        "city": "Kakucs"
    },
    {
        "zip": 2367,
        "city": "Újhartyán"
    },
    {
        "zip": 2370,
        "city": "Dabas"
    },
    {
        "zip": 2371,
        "city": "Dabas"
    },
    {
        "zip": 2372,
        "city": "Dabas"
    },
    {
        "zip": 2373,
        "city": "Dabas"
    },
    {
        "zip": 2374,
        "city": "Dabas"
    },
    {
        "zip": 2375,
        "city": "Tatárszentgyörgy"
    },
    {
        "zip": 2376,
        "city": "Hernád"
    },
    {
        "zip": 2377,
        "city": "Örkény"
    },
    {
        "zip": 2378,
        "city": "Pusztavacs"
    },
    {
        "zip": 2381,
        "city": "Táborfalva"
    },
    {
        "zip": 2400,
        "city": "Dunaújváros"
    },
    {
        "zip": 2401,
        "city": "Dunaújváros"
    },
    {
        "zip": 2402,
        "city": "Dunaújváros"
    },
    {
        "zip": 2403,
        "city": "Dunaújváros"
    },
    {
        "zip": 2404,
        "city": "Dunaújváros"
    },
    {
        "zip": 2405,
        "city": "Dunaújváros"
    },
    {
        "zip": 2406,
        "city": "Dunaújváros"
    },
    {
        "zip": 2407,
        "city": "Dunaújváros"
    },
    {
        "zip": 2408,
        "city": "Dunaújváros"
    },
    {
        "zip": 2421,
        "city": "Nagyvenyim"
    },
    {
        "zip": 2422,
        "city": "Mezőfalva"
    },
    {
        "zip": 2423,
        "city": "Daruszentmiklós"
    },
    {
        "zip": 2424,
        "city": "Előszállás"
    },
    {
        "zip": 2425,
        "city": "Nagykarácsony"
    },
    {
        "zip": 2426,
        "city": "Baracs"
    },
    {
        "zip": 2427,
        "city": "Baracs"
    },
    {
        "zip": 2428,
        "city": "Kisapostag"
    },
    {
        "zip": 2431,
        "city": "Perkáta"
    },
    {
        "zip": 2432,
        "city": "Szabadegyháza"
    },
    {
        "zip": 2433,
        "city": "Sárosd"
    },
    {
        "zip": 2434,
        "city": "Hantos"
    },
    {
        "zip": 2435,
        "city": "Nagylók"
    },
    {
        "zip": 2440,
        "city": "Százhalombatta"
    },
    {
        "zip": 2441,
        "city": "Százhalombatta"
    },
    {
        "zip": 2442,
        "city": "Százhalombatta"
    },
    {
        "zip": 2443,
        "city": "Százhalombatta"
    },
    {
        "zip": 2444,
        "city": "Százhalombatta"
    },
    {
        "zip": 2451,
        "city": "Ercsi"
    },
    {
        "zip": 2453,
        "city": "Ercsi"
    },
    {
        "zip": 2454,
        "city": "Iváncsa"
    },
    {
        "zip": 2455,
        "city": "Beloiannisz"
    },
    {
        "zip": 2456,
        "city": "Besnyő"
    },
    {
        "zip": 2457,
        "city": "Adony"
    },
    {
        "zip": 2458,
        "city": "Kulcs"
    },
    {
        "zip": 2459,
        "city": "Rácalmás"
    },
    {
        "zip": 2461,
        "city": "Tárnok"
    },
    {
        "zip": 2462,
        "city": "Martonvásár"
    },
    {
        "zip": 2463,
        "city": "Tordas"
    },
    {
        "zip": 2464,
        "city": "Gyúró"
    },
    {
        "zip": 2465,
        "city": "Ráckeresztúr"
    },
    {
        "zip": 2471,
        "city": "Baracska"
    },
    {
        "zip": 2472,
        "city": "Kajászó"
    },
    {
        "zip": 2473,
        "city": "Vál"
    },
    {
        "zip": 2475,
        "city": "Kápolnásnyék"
    },
    {
        "zip": 2476,
        "city": "Pázmánd"
    },
    {
        "zip": 2477,
        "city": "Vereb"
    },
    {
        "zip": 2481,
        "city": "Velence"
    },
    {
        "zip": 2482,
        "city": "Velence"
    },
    {
        "zip": 2483,
        "city": "Gárdony"
    },
    {
        "zip": 2484,
        "city": "Gárdony"
    },
    {
        "zip": 2485,
        "city": "Gárdony"
    },
    {
        "zip": 2490,
        "city": "Pusztaszabolcs"
    },
    {
        "zip": 2500,
        "city": "Esztergom"
    },
    {
        "zip": 2501,
        "city": "Esztergom"
    },
    {
        "zip": 2503,
        "city": "Esztergom"
    },
    {
        "zip": 2508,
        "city": "Esztergom"
    },
    {
        "zip": 2509,
        "city": "Esztergom"
    },
    {
        "zip": 2510,
        "city": "Dorog"
    },
    {
        "zip": 2511,
        "city": "Dorog"
    },
    {
        "zip": 2512,
        "city": "Dorog"
    },
    {
        "zip": 2517,
        "city": "Kesztölc"
    },
    {
        "zip": 2518,
        "city": "Leányvár"
    },
    {
        "zip": 2519,
        "city": "Piliscsév"
    },
    {
        "zip": 2521,
        "city": "Csolnok"
    },
    {
        "zip": 2522,
        "city": "Dág"
    },
    {
        "zip": 2523,
        "city": "Sárisáp"
    },
    {
        "zip": 2524,
        "city": "Nagysáp"
    },
    {
        "zip": 2525,
        "city": "Bajna"
    },
    {
        "zip": 2526,
        "city": "Epöl"
    },
    {
        "zip": 2527,
        "city": "Máriahalom"
    },
    {
        "zip": 2528,
        "city": "Úny"
    },
    {
        "zip": 2529,
        "city": "Annavölgy"
    },
    {
        "zip": 2531,
        "city": "Tokod"
    },
    {
        "zip": 2532,
        "city": "Tokodaltáró"
    },
    {
        "zip": 2533,
        "city": "Bajót"
    },
    {
        "zip": 2534,
        "city": "Tát"
    },
    {
        "zip": 2535,
        "city": "Mogyorósbánya"
    },
    {
        "zip": 2536,
        "city": "Nyergesújfalu"
    },
    {
        "zip": 2537,
        "city": "Nyergesújfalu"
    },
    {
        "zip": 2541,
        "city": "Lábatlan"
    },
    {
        "zip": 2542,
        "city": "Lábatlan"
    },
    {
        "zip": 2543,
        "city": "Süttő"
    },
    {
        "zip": 2544,
        "city": "Neszmély"
    },
    {
        "zip": 2545,
        "city": "Dunaalmás"
    },
    {
        "zip": 2600,
        "city": "Vác"
    },
    {
        "zip": 2601,
        "city": "Vác"
    },
    {
        "zip": 2602,
        "city": "Vác"
    },
    {
        "zip": 2603,
        "city": "Vác"
    },
    {
        "zip": 2610,
        "city": "Nőtincs"
    },
    {
        "zip": 2611,
        "city": "Felsőpetény"
    },
    {
        "zip": 2612,
        "city": "Kosd"
    },
    {
        "zip": 2613,
        "city": "Rád"
    },
    {
        "zip": 2614,
        "city": "Penc"
    },
    {
        "zip": 2615,
        "city": "Csővár"
    },
    {
        "zip": 2616,
        "city": "Ősagárd"
    },
    {
        "zip": 2616,
        "city": "Keszeg"
    },
    {
        "zip": 2617,
        "city": "Alsópetény"
    },
    {
        "zip": 2618,
        "city": "Nézsa"
    },
    {
        "zip": 2619,
        "city": "Legénd"
    },
    {
        "zip": 2621,
        "city": "Verőce"
    },
    {
        "zip": 2623,
        "city": "Kismaros"
    },
    {
        "zip": 2624,
        "city": "Szokolya"
    },
    {
        "zip": 2625,
        "city": "Kóspallag"
    },
    {
        "zip": 2626,
        "city": "Nagymaros"
    },
    {
        "zip": 2627,
        "city": "Zebegény"
    },
    {
        "zip": 2628,
        "city": "Szob"
    },
    {
        "zip": 2629,
        "city": "Márianosztra"
    },
    {
        "zip": 2631,
        "city": "Ipolydamásd"
    },
    {
        "zip": 2632,
        "city": "Letkés"
    },
    {
        "zip": 2633,
        "city": "Ipolytölgyes"
    },
    {
        "zip": 2634,
        "city": "Nagybörzsöny"
    },
    {
        "zip": 2635,
        "city": "Vámosmikola"
    },
    {
        "zip": 2636,
        "city": "Tésa"
    },
    {
        "zip": 2637,
        "city": "Perőcsény"
    },
    {
        "zip": 2638,
        "city": "Kemence"
    },
    {
        "zip": 2639,
        "city": "Bernecebaráti"
    },
    {
        "zip": 2640,
        "city": "Szendehely"
    },
    {
        "zip": 2641,
        "city": "Berkenye"
    },
    {
        "zip": 2642,
        "city": "Nógrád"
    },
    {
        "zip": 2643,
        "city": "Diósjenő"
    },
    {
        "zip": 2644,
        "city": "Borsosberény"
    },
    {
        "zip": 2645,
        "city": "Nagyoroszi"
    },
    {
        "zip": 2646,
        "city": "Drégelypalánk"
    },
    {
        "zip": 2647,
        "city": "Hont"
    },
    {
        "zip": 2648,
        "city": "Patak"
    },
    {
        "zip": 2649,
        "city": "Dejtár"
    },
    {
        "zip": 2651,
        "city": "Rétság"
    },
    {
        "zip": 2652,
        "city": "Tereske"
    },
    {
        "zip": 2653,
        "city": "Bánk"
    },
    {
        "zip": 2654,
        "city": "Romhány"
    },
    {
        "zip": 2655,
        "city": "Kétbodony"
    },
    {
        "zip": 2655,
        "city": "Kisecset"
    },
    {
        "zip": 2655,
        "city": "Szente"
    },
    {
        "zip": 2656,
        "city": "Szátok"
    },
    {
        "zip": 2657,
        "city": "Tolmács"
    },
    {
        "zip": 2658,
        "city": "Horpács"
    },
    {
        "zip": 2658,
        "city": "Pusztaberki"
    },
    {
        "zip": 2659,
        "city": "Érsekvadkert"
    },
    {
        "zip": 2660,
        "city": "Balassagyarmat"
    },
    {
        "zip": 2661,
        "city": "Balassagyarmat"
    },
    {
        "zip": 2662,
        "city": "Balassagyarmat"
    },
    {
        "zip": 2668,
        "city": "Patvarc"
    },
    {
        "zip": 2669,
        "city": "Ipolyvece"
    },
    {
        "zip": 2671,
        "city": "Őrhalom"
    },
    {
        "zip": 2672,
        "city": "Hugyag"
    },
    {
        "zip": 2673,
        "city": "Csitár"
    },
    {
        "zip": 2675,
        "city": "Iliny"
    },
    {
        "zip": 2675,
        "city": "Nógrádmarcal"
    },
    {
        "zip": 2676,
        "city": "Cserhátsurány"
    },
    {
        "zip": 2677,
        "city": "Herencsény"
    },
    {
        "zip": 2678,
        "city": "Csesztve"
    },
    {
        "zip": 2681,
        "city": "Galgagyörk"
    },
    {
        "zip": 2682,
        "city": "Püspökhatvan"
    },
    {
        "zip": 2683,
        "city": "Acsa"
    },
    {
        "zip": 2685,
        "city": "Nógrádsáp"
    },
    {
        "zip": 2686,
        "city": "Galgaguta"
    },
    {
        "zip": 2687,
        "city": "Bercel"
    },
    {
        "zip": 2688,
        "city": "Vanyarc"
    },
    {
        "zip": 2691,
        "city": "Nógrádkövesd"
    },
    {
        "zip": 2692,
        "city": "Szécsénke"
    },
    {
        "zip": 2693,
        "city": "Becske"
    },
    {
        "zip": 2694,
        "city": "Magyarnándor"
    },
    {
        "zip": 2694,
        "city": "Debercsény"
    },
    {
        "zip": 2694,
        "city": "Cserháthaláp"
    },
    {
        "zip": 2696,
        "city": "Terény"
    },
    {
        "zip": 2697,
        "city": "Szanda"
    },
    {
        "zip": 2698,
        "city": "Mohora"
    },
    {
        "zip": 2699,
        "city": "Szügy"
    },
    {
        "zip": 2700,
        "city": "Cegléd"
    },
    {
        "zip": 2701,
        "city": "Cegléd"
    },
    {
        "zip": 2702,
        "city": "Cegléd"
    },
    {
        "zip": 2703,
        "city": "Cegléd"
    },
    {
        "zip": 2704,
        "city": "Cegléd"
    },
    {
        "zip": 2711,
        "city": "Tápiószentmárton"
    },
    {
        "zip": 2712,
        "city": "Nyársapát"
    },
    {
        "zip": 2713,
        "city": "Csemő"
    },
    {
        "zip": 2721,
        "city": "Pilis"
    },
    {
        "zip": 2723,
        "city": "Nyáregyháza"
    },
    {
        "zip": 2724,
        "city": "Újlengyel"
    },
    {
        "zip": 2730,
        "city": "Albertirsa"
    },
    {
        "zip": 2735,
        "city": "Dánszentmiklós"
    },
    {
        "zip": 2736,
        "city": "Mikebuda"
    },
    {
        "zip": 2737,
        "city": "Ceglédbercel"
    },
    {
        "zip": 2738,
        "city": "Ceglédbercel"
    },
    {
        "zip": 2740,
        "city": "Abony"
    },
    {
        "zip": 2745,
        "city": "Kőröstetétlen"
    },
    {
        "zip": 2746,
        "city": "Jászkarajenő"
    },
    {
        "zip": 2747,
        "city": "Törtel"
    },
    {
        "zip": 2750,
        "city": "Nagykőrös"
    },
    {
        "zip": 2751,
        "city": "Nagykőrös"
    },
    {
        "zip": 2752,
        "city": "Nagykőrös"
    },
    {
        "zip": 2755,
        "city": "Kocsér"
    },
    {
        "zip": 2760,
        "city": "Nagykáta"
    },
    {
        "zip": 2761,
        "city": "Nagykáta"
    },
    {
        "zip": 2764,
        "city": "Tápióbicske"
    },
    {
        "zip": 2765,
        "city": "Farmos"
    },
    {
        "zip": 2766,
        "city": "Tápiószele"
    },
    {
        "zip": 2767,
        "city": "Tápiógyörgye"
    },
    {
        "zip": 2768,
        "city": "Újszilvás"
    },
    {
        "zip": 2769,
        "city": "Tápiószőlős"
    },
    {
        "zip": 2800,
        "city": "Tatabánya"
    },
    {
        "zip": 2801,
        "city": "Tatabánya"
    },
    {
        "zip": 2802,
        "city": "Tatabánya"
    },
    {
        "zip": 2803,
        "city": "Tatabánya"
    },
    {
        "zip": 2804,
        "city": "Tatabánya"
    },
    {
        "zip": 2805,
        "city": "Tatabánya"
    },
    {
        "zip": 2806,
        "city": "Tatabánya"
    },
    {
        "zip": 2807,
        "city": "Tatabánya"
    },
    {
        "zip": 2808,
        "city": "Tatabánya"
    },
    {
        "zip": 2809,
        "city": "Tatabánya"
    },
    {
        "zip": 2821,
        "city": "Gyermely"
    },
    {
        "zip": 2822,
        "city": "Szomor"
    },
    {
        "zip": 2823,
        "city": "Vértessomló"
    },
    {
        "zip": 2824,
        "city": "Várgesztes"
    },
    {
        "zip": 2831,
        "city": "Tarján"
    },
    {
        "zip": 2832,
        "city": "Héreg"
    },
    {
        "zip": 2833,
        "city": "Vértestolna"
    },
    {
        "zip": 2834,
        "city": "Tardos"
    },
    {
        "zip": 2835,
        "city": "Tardos"
    },
    {
        "zip": 2836,
        "city": "Baj"
    },
    {
        "zip": 2837,
        "city": "Vértesszőlős"
    },
    {
        "zip": 2840,
        "city": "Oroszlány"
    },
    {
        "zip": 2841,
        "city": "Oroszlány"
    },
    {
        "zip": 2842,
        "city": "Oroszlány"
    },
    {
        "zip": 2851,
        "city": "Környe"
    },
    {
        "zip": 2852,
        "city": "Kecskéd"
    },
    {
        "zip": 2853,
        "city": "Kömlőd"
    },
    {
        "zip": 2854,
        "city": "Dad"
    },
    {
        "zip": 2855,
        "city": "Bokod"
    },
    {
        "zip": 2856,
        "city": "Szákszend"
    },
    {
        "zip": 2858,
        "city": "Császár"
    },
    {
        "zip": 2859,
        "city": "Vérteskethely"
    },
    {
        "zip": 2861,
        "city": "Bakonysárkány"
    },
    {
        "zip": 2862,
        "city": "Aka"
    },
    {
        "zip": 2870,
        "city": "Kisbér"
    },
    {
        "zip": 2879,
        "city": "Kisbér"
    },
    {
        "zip": 2881,
        "city": "Ászár"
    },
    {
        "zip": 2882,
        "city": "Kerékteleki"
    },
    {
        "zip": 2883,
        "city": "Bársonyos"
    },
    {
        "zip": 2884,
        "city": "Bakonyszombathely"
    },
    {
        "zip": 2885,
        "city": "Bakonybánk"
    },
    {
        "zip": 2886,
        "city": "Réde"
    },
    {
        "zip": 2887,
        "city": "Ácsteszér"
    },
    {
        "zip": 2888,
        "city": "Csatka"
    },
    {
        "zip": 2889,
        "city": "Súr"
    },
    {
        "zip": 2890,
        "city": "Tata"
    },
    {
        "zip": 2891,
        "city": "Tata"
    },
    {
        "zip": 2892,
        "city": "Tata"
    },
    {
        "zip": 2893,
        "city": "Tata"
    },
    {
        "zip": 2894,
        "city": "Tata"
    },
    {
        "zip": 2896,
        "city": "Szomód"
    },
    {
        "zip": 2897,
        "city": "Dunaszentmiklós"
    },
    {
        "zip": 2898,
        "city": "Kocs"
    },
    {
        "zip": 2899,
        "city": "Naszály"
    },
    {
        "zip": 2900,
        "city": "Komárom"
    },
    {
        "zip": 2901,
        "city": "Komárom"
    },
    {
        "zip": 2902,
        "city": "Komárom"
    },
    {
        "zip": 2903,
        "city": "Komárom"
    },
    {
        "zip": 2904,
        "city": "Komárom"
    },
    {
        "zip": 2911,
        "city": "Mocsa"
    },
    {
        "zip": 2921,
        "city": "Mocsa"
    },
    {
        "zip": 2922,
        "city": "Mocsa"
    },
    {
        "zip": 2931,
        "city": "Almásfüzitő"
    },
    {
        "zip": 2932,
        "city": "Almásfüzitő"
    },
    {
        "zip": 2941,
        "city": "Ács"
    },
    {
        "zip": 2942,
        "city": "Nagyigmánd"
    },
    {
        "zip": 2943,
        "city": "Bábolna"
    },
    {
        "zip": 2944,
        "city": "Bana"
    },
    {
        "zip": 2945,
        "city": "Tárkány"
    },
    {
        "zip": 2946,
        "city": "Csép"
    },
    {
        "zip": 2947,
        "city": "Ete"
    },
    {
        "zip": 2948,
        "city": "Kisigmánd"
    },
    {
        "zip": 2949,
        "city": "Csém"
    },
    {
        "zip": 3000,
        "city": "Hatvan"
    },
    {
        "zip": 3001,
        "city": "Hatvan"
    },
    {
        "zip": 3002,
        "city": "Hatvan"
    },
    {
        "zip": 3003,
        "city": "Hatvan"
    },
    {
        "zip": 3009,
        "city": "Hatvan"
    },
    {
        "zip": 3011,
        "city": "Heréd"
    },
    {
        "zip": 3012,
        "city": "Nagykökényes"
    },
    {
        "zip": 3013,
        "city": "Ecséd"
    },
    {
        "zip": 3014,
        "city": "Hort"
    },
    {
        "zip": 3015,
        "city": "Csány"
    },
    {
        "zip": 3016,
        "city": "Boldog"
    },
    {
        "zip": 3021,
        "city": "Lőrinci"
    },
    {
        "zip": 3022,
        "city": "Lőrinci"
    },
    {
        "zip": 3023,
        "city": "Petőfibánya"
    },
    {
        "zip": 3024,
        "city": "Petőfibánya"
    },
    {
        "zip": 3031,
        "city": "Zagyvaszántó"
    },
    {
        "zip": 3032,
        "city": "Apc"
    },
    {
        "zip": 3033,
        "city": "Rózsaszentmárton"
    },
    {
        "zip": 3034,
        "city": "Szűcsi"
    },
    {
        "zip": 3035,
        "city": "Gyöngyöspata"
    },
    {
        "zip": 3036,
        "city": "Gyöngyöstarján"
    },
    {
        "zip": 3041,
        "city": "Héhalom"
    },
    {
        "zip": 3042,
        "city": "Palotás"
    },
    {
        "zip": 3043,
        "city": "Egyházasdengeleg"
    },
    {
        "zip": 3044,
        "city": "Szirák"
    },
    {
        "zip": 3045,
        "city": "Bér"
    },
    {
        "zip": 3046,
        "city": "Kisbágyon"
    },
    {
        "zip": 3047,
        "city": "Buják"
    },
    {
        "zip": 3051,
        "city": "Szarvasgede"
    },
    {
        "zip": 3052,
        "city": "Csécse"
    },
    {
        "zip": 3053,
        "city": "Kozárd"
    },
    {
        "zip": 3053,
        "city": "Ecseg"
    },
    {
        "zip": 3060,
        "city": "Pásztó"
    },
    {
        "zip": 3061,
        "city": "Pásztó"
    },
    {
        "zip": 3062,
        "city": "Pásztó"
    },
    {
        "zip": 3063,
        "city": "Jobbágyi"
    },
    {
        "zip": 3064,
        "city": "Szurdokpüspöki"
    },
    {
        "zip": 3065,
        "city": "Szurdokpüspöki"
    },
    {
        "zip": 3066,
        "city": "Kutasó"
    },
    {
        "zip": 3066,
        "city": "Bokor"
    },
    {
        "zip": 3066,
        "city": "Cserhátszentiván"
    },
    {
        "zip": 3067,
        "city": "Felsőtold"
    },
    {
        "zip": 3067,
        "city": "Garáb"
    },
    {
        "zip": 3068,
        "city": "Mátraszőlős"
    },
    {
        "zip": 3069,
        "city": "Alsótold"
    },
    {
        "zip": 3070,
        "city": "Bátonyterenye"
    },
    {
        "zip": 3071,
        "city": "Bátonyterenye"
    },
    {
        "zip": 3072,
        "city": "Bátonyterenye"
    },
    {
        "zip": 3073,
        "city": "Tar"
    },
    {
        "zip": 3074,
        "city": "Sámsonháza"
    },
    {
        "zip": 3075,
        "city": "Márkháza"
    },
    {
        "zip": 3075,
        "city": "Kisbárkány"
    },
    {
        "zip": 3075,
        "city": "Nagybárkány"
    },
    {
        "zip": 3077,
        "city": "Mátraverebély"
    },
    {
        "zip": 3078,
        "city": "Mátraverebély"
    },
    {
        "zip": 3082,
        "city": "Mátraverebély"
    },
    {
        "zip": 3100,
        "city": "Salgótarján"
    },
    {
        "zip": 3101,
        "city": "Salgótarján"
    },
    {
        "zip": 3102,
        "city": "Salgótarján"
    },
    {
        "zip": 3103,
        "city": "Salgótarján"
    },
    {
        "zip": 3104,
        "city": "Salgótarján"
    },
    {
        "zip": 3107,
        "city": "Salgótarján"
    },
    {
        "zip": 3109,
        "city": "Salgótarján"
    },
    {
        "zip": 3110,
        "city": "Salgótarján"
    },
    {
        "zip": 3121,
        "city": "Salgótarján"
    },
    {
        "zip": 3123,
        "city": "Cered"
    },
    {
        "zip": 3124,
        "city": "Zabar"
    },
    {
        "zip": 3125,
        "city": "Szilaspogony"
    },
    {
        "zip": 3126,
        "city": "Bárna"
    },
    {
        "zip": 3127,
        "city": "Kazár"
    },
    {
        "zip": 3128,
        "city": "Vizslás"
    },
    {
        "zip": 3129,
        "city": "Lucfalva"
    },
    {
        "zip": 3131,
        "city": "Sóshartyán"
    },
    {
        "zip": 3132,
        "city": "Nógrádmegyer"
    },
    {
        "zip": 3133,
        "city": "Magyargéc"
    },
    {
        "zip": 3134,
        "city": "Piliny"
    },
    {
        "zip": 3135,
        "city": "Szécsényfelfalu"
    },
    {
        "zip": 3136,
        "city": "Etes"
    },
    {
        "zip": 3137,
        "city": "Karancsberény"
    },
    {
        "zip": 3138,
        "city": "Ipolytarnóc"
    },
    {
        "zip": 3141,
        "city": "Ipolytarnóc"
    },
    {
        "zip": 3142,
        "city": "Mátraszele"
    },
    {
        "zip": 3143,
        "city": "Mátranovák"
    },
    {
        "zip": 3144,
        "city": "Mátranovák"
    },
    {
        "zip": 3145,
        "city": "Mátraterenye"
    },
    {
        "zip": 3146,
        "city": "Mátraterenye"
    },
    {
        "zip": 3147,
        "city": "Mátraterenye"
    },
    {
        "zip": 3151,
        "city": "Rákóczibánya"
    },
    {
        "zip": 3152,
        "city": "Nemti"
    },
    {
        "zip": 3153,
        "city": "Dorogháza"
    },
    {
        "zip": 3154,
        "city": "Szuha"
    },
    {
        "zip": 3155,
        "city": "Mátramindszent"
    },
    {
        "zip": 3161,
        "city": "Kishartyán"
    },
    {
        "zip": 3162,
        "city": "Ságújfalu"
    },
    {
        "zip": 3163,
        "city": "Karancsság"
    },
    {
        "zip": 3163,
        "city": "Szalmatercs"
    },
    {
        "zip": 3165,
        "city": "Endrefalva"
    },
    {
        "zip": 3170,
        "city": "Szécsény"
    },
    {
        "zip": 3175,
        "city": "Nagylóc"
    },
    {
        "zip": 3176,
        "city": "Hollókő"
    },
    {
        "zip": 3177,
        "city": "Rimóc"
    },
    {
        "zip": 3178,
        "city": "Varsány"
    },
    {
        "zip": 3179,
        "city": "Nógrádsipek"
    },
    {
        "zip": 3181,
        "city": "Karancsalja"
    },
    {
        "zip": 3182,
        "city": "Karancslapujtő"
    },
    {
        "zip": 3183,
        "city": "Karancskeszi"
    },
    {
        "zip": 3184,
        "city": "Mihálygerge"
    },
    {
        "zip": 3185,
        "city": "Egyházasgerge"
    },
    {
        "zip": 3186,
        "city": "Litke"
    },
    {
        "zip": 3187,
        "city": "Nógrádszakál"
    },
    {
        "zip": 3188,
        "city": "Ludányhalászi"
    },
    {
        "zip": 3200,
        "city": "Gyöngyös"
    },
    {
        "zip": 3201,
        "city": "Gyöngyös"
    },
    {
        "zip": 3202,
        "city": "Gyöngyös"
    },
    {
        "zip": 3211,
        "city": "Gyöngyösoroszi"
    },
    {
        "zip": 3212,
        "city": "Gyöngyöshalász"
    },
    {
        "zip": 3213,
        "city": "Atkár"
    },
    {
        "zip": 3214,
        "city": "Nagyréde"
    },
    {
        "zip": 3221,
        "city": "Nagyréde"
    },
    {
        "zip": 3231,
        "city": "Gyöngyössolymos"
    },
    {
        "zip": 3232,
        "city": "Gyöngyössolymos"
    },
    {
        "zip": 3233,
        "city": "Gyöngyössolymos"
    },
    {
        "zip": 3234,
        "city": "Gyöngyössolymos"
    },
    {
        "zip": 3235,
        "city": "Mátraszentimre"
    },
    {
        "zip": 3240,
        "city": "Parád"
    },
    {
        "zip": 3242,
        "city": "Parádsasvár"
    },
    {
        "zip": 3243,
        "city": "Bodony"
    },
    {
        "zip": 3244,
        "city": "Bodony"
    },
    {
        "zip": 3245,
        "city": "Recsk"
    },
    {
        "zip": 3246,
        "city": "Mátraderecske"
    },
    {
        "zip": 3247,
        "city": "Mátraballa"
    },
    {
        "zip": 3248,
        "city": "Ivád"
    },
    {
        "zip": 3250,
        "city": "Pétervására"
    },
    {
        "zip": 3252,
        "city": "Erdőkövesd"
    },
    {
        "zip": 3253,
        "city": "Istenmezeje"
    },
    {
        "zip": 3254,
        "city": "Váraszó"
    },
    {
        "zip": 3255,
        "city": "Fedémes"
    },
    {
        "zip": 3256,
        "city": "Kisfüzes"
    },
    {
        "zip": 3257,
        "city": "Bükkszenterzsébet"
    },
    {
        "zip": 3258,
        "city": "Tarnalelesz"
    },
    {
        "zip": 3259,
        "city": "Szentdomonkos"
    },
    {
        "zip": 3261,
        "city": "Abasár"
    },
    {
        "zip": 3262,
        "city": "Markaz"
    },
    {
        "zip": 3263,
        "city": "Domoszló"
    },
    {
        "zip": 3264,
        "city": "Kisnána"
    },
    {
        "zip": 3265,
        "city": "Vécs"
    },
    {
        "zip": 3271,
        "city": "Visonta"
    },
    {
        "zip": 3272,
        "city": "Visonta"
    },
    {
        "zip": 3273,
        "city": "Halmajugra"
    },
    {
        "zip": 3274,
        "city": "Ludas"
    },
    {
        "zip": 3275,
        "city": "Detk"
    },
    {
        "zip": 3281,
        "city": "Karácsond"
    },
    {
        "zip": 3282,
        "city": "Nagyfüged"
    },
    {
        "zip": 3283,
        "city": "Tarnazsadány"
    },
    {
        "zip": 3284,
        "city": "Tarnaméra"
    },
    {
        "zip": 3291,
        "city": "Vámosgyörk"
    },
    {
        "zip": 3292,
        "city": "Adács"
    },
    {
        "zip": 3293,
        "city": "Visznek"
    },
    {
        "zip": 3294,
        "city": "Tarnaörs"
    },
    {
        "zip": 3295,
        "city": "Erk"
    },
    {
        "zip": 3296,
        "city": "Zaránk"
    },
    {
        "zip": 3300,
        "city": "Eger"
    },
    {
        "zip": 3301,
        "city": "Eger"
    },
    {
        "zip": 3302,
        "city": "Eger"
    },
    {
        "zip": 3303,
        "city": "Eger"
    },
    {
        "zip": 3304,
        "city": "Eger"
    },
    {
        "zip": 3305,
        "city": "Eger"
    },
    {
        "zip": 3321,
        "city": "Egerbakta"
    },
    {
        "zip": 3322,
        "city": "Hevesaranyos"
    },
    {
        "zip": 3323,
        "city": "Szarvaskő"
    },
    {
        "zip": 3324,
        "city": "Felsőtárkány"
    },
    {
        "zip": 3325,
        "city": "Noszvaj"
    },
    {
        "zip": 3326,
        "city": "Ostoros"
    },
    {
        "zip": 3327,
        "city": "Novaj"
    },
    {
        "zip": 3328,
        "city": "Egerszólát"
    },
    {
        "zip": 3331,
        "city": "Tarnaszentmária"
    },
    {
        "zip": 3332,
        "city": "Sirok"
    },
    {
        "zip": 3333,
        "city": "Terpes"
    },
    {
        "zip": 3334,
        "city": "Szajla"
    },
    {
        "zip": 3335,
        "city": "Bükkszék"
    },
    {
        "zip": 3336,
        "city": "Bátor"
    },
    {
        "zip": 3337,
        "city": "Egerbocs"
    },
    {
        "zip": 3341,
        "city": "Szúcs"
    },
    {
        "zip": 3341,
        "city": "Egercsehi"
    },
    {
        "zip": 3343,
        "city": "Bekölce"
    },
    {
        "zip": 3344,
        "city": "Mikófalva"
    },
    {
        "zip": 3345,
        "city": "Mónosbél"
    },
    {
        "zip": 3346,
        "city": "Bélapátfalva"
    },
    {
        "zip": 3346,
        "city": "Bükkszentmárton"
    },
    {
        "zip": 3347,
        "city": "Balaton"
    },
    {
        "zip": 3348,
        "city": "Szilvásvárad"
    },
    {
        "zip": 3349,
        "city": "Nagyvisnyó"
    },
    {
        "zip": 3350,
        "city": "Kál"
    },
    {
        "zip": 3351,
        "city": "Verpelét"
    },
    {
        "zip": 3352,
        "city": "Feldebrő"
    },
    {
        "zip": 3353,
        "city": "Aldebrő"
    },
    {
        "zip": 3354,
        "city": "Tófalu"
    },
    {
        "zip": 3355,
        "city": "Kápolna"
    },
    {
        "zip": 3356,
        "city": "Kompolt"
    },
    {
        "zip": 3357,
        "city": "Nagyút"
    },
    {
        "zip": 3358,
        "city": "Erdőtelek"
    },
    {
        "zip": 3359,
        "city": "Tenk"
    },
    {
        "zip": 3360,
        "city": "Heves"
    },
    {
        "zip": 3368,
        "city": "Boconád"
    },
    {
        "zip": 3369,
        "city": "Tarnabod"
    },
    {
        "zip": 3371,
        "city": "Átány"
    },
    {
        "zip": 3372,
        "city": "Kömlő"
    },
    {
        "zip": 3373,
        "city": "Besenyőtelek"
    },
    {
        "zip": 3374,
        "city": "Dormánd"
    },
    {
        "zip": 3375,
        "city": "Mezőtárkány"
    },
    {
        "zip": 3377,
        "city": "Szihalom"
    },
    {
        "zip": 3378,
        "city": "Mezőszemere"
    },
    {
        "zip": 3379,
        "city": "Egerfarmos"
    },
    {
        "zip": 3381,
        "city": "Pély"
    },
    {
        "zip": 3382,
        "city": "Tarnaszentmiklós"
    },
    {
        "zip": 3383,
        "city": "Hevesvezekény"
    },
    {
        "zip": 3384,
        "city": "Kisköre"
    },
    {
        "zip": 3385,
        "city": "Tiszanána"
    },
    {
        "zip": 3386,
        "city": "Sarud"
    },
    {
        "zip": 3387,
        "city": "Újlőrincfalva"
    },
    {
        "zip": 3388,
        "city": "Poroszló"
    },
    {
        "zip": 3390,
        "city": "Füzesabony"
    },
    {
        "zip": 3392,
        "city": "Füzesabony"
    },
    {
        "zip": 3393,
        "city": "Füzesabony"
    },
    {
        "zip": 3394,
        "city": "Egerszalók"
    },
    {
        "zip": 3395,
        "city": "Demjén"
    },
    {
        "zip": 3396,
        "city": "Kerecsend"
    },
    {
        "zip": 3397,
        "city": "Maklár"
    },
    {
        "zip": 3398,
        "city": "Nagytálya"
    },
    {
        "zip": 3399,
        "city": "Andornaktálya"
    },
    {
        "zip": 3400,
        "city": "Mezőkövesd"
    },
    {
        "zip": 3401,
        "city": "Mezőkövesd"
    },
    {
        "zip": 3402,
        "city": "Mezőkövesd"
    },
    {
        "zip": 3411,
        "city": "Szomolya"
    },
    {
        "zip": 3412,
        "city": "Bogács"
    },
    {
        "zip": 3413,
        "city": "Cserépfalu"
    },
    {
        "zip": 3414,
        "city": "Bükkzsérc"
    },
    {
        "zip": 3416,
        "city": "Tard"
    },
    {
        "zip": 3417,
        "city": "Cserépváralja"
    },
    {
        "zip": 3418,
        "city": "Szentistván"
    },
    {
        "zip": 3421,
        "city": "Mezőnyárád"
    },
    {
        "zip": 3422,
        "city": "Bükkábrány"
    },
    {
        "zip": 3423,
        "city": "Tibolddaróc"
    },
    {
        "zip": 3424,
        "city": "Kács"
    },
    {
        "zip": 3425,
        "city": "Sály"
    },
    {
        "zip": 3426,
        "city": "Borsodgeszt"
    },
    {
        "zip": 3431,
        "city": "Vatta"
    },
    {
        "zip": 3432,
        "city": "Emőd"
    },
    {
        "zip": 3433,
        "city": "Nyékládháza"
    },
    {
        "zip": 3434,
        "city": "Mályi"
    },
    {
        "zip": 3435,
        "city": "Mályi"
    },
    {
        "zip": 3441,
        "city": "Mezőkeresztes"
    },
    {
        "zip": 3442,
        "city": "Csincse"
    },
    {
        "zip": 3443,
        "city": "Mezőnagymihály"
    },
    {
        "zip": 3444,
        "city": "Gelej"
    },
    {
        "zip": 3450,
        "city": "Mezőcsát"
    },
    {
        "zip": 3458,
        "city": "Tiszakeszi"
    },
    {
        "zip": 3459,
        "city": "Igrici"
    },
    {
        "zip": 3461,
        "city": "Egerlövő"
    },
    {
        "zip": 3462,
        "city": "Borsodivánka"
    },
    {
        "zip": 3463,
        "city": "Négyes"
    },
    {
        "zip": 3464,
        "city": "Tiszavalk"
    },
    {
        "zip": 3465,
        "city": "Tiszabábolna"
    },
    {
        "zip": 3466,
        "city": "Tiszadorogma"
    },
    {
        "zip": 3467,
        "city": "Ároktő"
    },
    {
        "zip": 3500,
        "city": "Miskolc"
    },
    {
        "zip": 3501,
        "city": "Miskolc"
    },
    {
        "zip": 3502,
        "city": "Miskolc"
    },
    {
        "zip": 3503,
        "city": "Miskolc"
    },
    {
        "zip": 3504,
        "city": "Miskolc"
    },
    {
        "zip": 3505,
        "city": "Miskolc"
    },
    {
        "zip": 3506,
        "city": "Miskolc"
    },
    {
        "zip": 3507,
        "city": "Miskolc"
    },
    {
        "zip": 3508,
        "city": "Miskolc"
    },
    {
        "zip": 3509,
        "city": "Miskolc"
    },
    {
        "zip": 3510,
        "city": "Miskolc"
    },
    {
        "zip": 3511,
        "city": "Miskolc"
    },
    {
        "zip": 3513,
        "city": "Miskolc"
    },
    {
        "zip": 3514,
        "city": "Miskolc"
    },
    {
        "zip": 3515,
        "city": "Miskolc"
    },
    {
        "zip": 3516,
        "city": "Miskolc"
    },
    {
        "zip": 3517,
        "city": "Miskolc"
    },
    {
        "zip": 3518,
        "city": "Miskolc"
    },
    {
        "zip": 3519,
        "city": "Miskolc"
    },
    {
        "zip": 3521,
        "city": "Miskolc"
    },
    {
        "zip": 3523,
        "city": "Miskolc"
    },
    {
        "zip": 3524,
        "city": "Miskolc"
    },
    {
        "zip": 3525,
        "city": "Miskolc"
    },
    {
        "zip": 3526,
        "city": "Miskolc"
    },
    {
        "zip": 3527,
        "city": "Miskolc"
    },
    {
        "zip": 3528,
        "city": "Miskolc"
    },
    {
        "zip": 3529,
        "city": "Miskolc"
    },
    {
        "zip": 3530,
        "city": "Miskolc"
    },
    {
        "zip": 3531,
        "city": "Miskolc"
    },
    {
        "zip": 3532,
        "city": "Miskolc"
    },
    {
        "zip": 3533,
        "city": "Miskolc"
    },
    {
        "zip": 3534,
        "city": "Miskolc"
    },
    {
        "zip": 3535,
        "city": "Miskolc"
    },
    {
        "zip": 3542,
        "city": "Miskolc"
    },
    {
        "zip": 3543,
        "city": "Miskolc"
    },
    {
        "zip": 3544,
        "city": "Miskolc"
    },
    {
        "zip": 3545,
        "city": "Miskolc"
    },
    {
        "zip": 3546,
        "city": "Miskolc"
    },
    {
        "zip": 3547,
        "city": "Miskolc"
    },
    {
        "zip": 3548,
        "city": "Miskolc"
    },
    {
        "zip": 3549,
        "city": "Miskolc"
    },
    {
        "zip": 3551,
        "city": "Ónod"
    },
    {
        "zip": 3552,
        "city": "Muhi"
    },
    {
        "zip": 3553,
        "city": "Kistokaj"
    },
    {
        "zip": 3554,
        "city": "Bükkaranyos"
    },
    {
        "zip": 3555,
        "city": "Harsány"
    },
    {
        "zip": 3556,
        "city": "Kisgyőr"
    },
    {
        "zip": 3557,
        "city": "Bükkszentkereszt"
    },
    {
        "zip": 3559,
        "city": "Répáshuta"
    },
    {
        "zip": 3561,
        "city": "Felsőzsolca"
    },
    {
        "zip": 3562,
        "city": "Onga"
    },
    {
        "zip": 3563,
        "city": "Hernádkak"
    },
    {
        "zip": 3564,
        "city": "Hernádnémeti"
    },
    {
        "zip": 3565,
        "city": "Tiszalúc"
    },
    {
        "zip": 3571,
        "city": "Alsózsolca"
    },
    {
        "zip": 3572,
        "city": "Sajólád"
    },
    {
        "zip": 3573,
        "city": "Sajópetri"
    },
    {
        "zip": 3574,
        "city": "Bőcs"
    },
    {
        "zip": 3575,
        "city": "Berzék"
    },
    {
        "zip": 3576,
        "city": "Sajóhídvég"
    },
    {
        "zip": 3577,
        "city": "Köröm"
    },
    {
        "zip": 3578,
        "city": "Girincs"
    },
    {
        "zip": 3578,
        "city": "Kiscsécs"
    },
    {
        "zip": 3579,
        "city": "Kesznyéten"
    },
    {
        "zip": 3580,
        "city": "Tiszaújváros"
    },
    {
        "zip": 3581,
        "city": "Tiszaújváros"
    },
    {
        "zip": 3582,
        "city": "Tiszaújváros"
    },
    {
        "zip": 3585,
        "city": "Tiszaújváros"
    },
    {
        "zip": 3586,
        "city": "Sajóörös"
    },
    {
        "zip": 3587,
        "city": "Tiszapalkonya"
    },
    {
        "zip": 3588,
        "city": "Hejőkürt"
    },
    {
        "zip": 3589,
        "city": "Tiszatarján"
    },
    {
        "zip": 3591,
        "city": "Oszlár"
    },
    {
        "zip": 3592,
        "city": "Nemesbikk"
    },
    {
        "zip": 3593,
        "city": "Hejőbába"
    },
    {
        "zip": 3594,
        "city": "Hejőpapi"
    },
    {
        "zip": 3595,
        "city": "Hejőszalonta"
    },
    {
        "zip": 3596,
        "city": "Szakáld"
    },
    {
        "zip": 3597,
        "city": "Hejőkeresztúr"
    },
    {
        "zip": 3598,
        "city": "Nagycsécs"
    },
    {
        "zip": 3599,
        "city": "Sajószöged"
    },
    {
        "zip": 3600,
        "city": "Ózd"
    },
    {
        "zip": 3601,
        "city": "Ózd"
    },
    {
        "zip": 3603,
        "city": "Ózd"
    },
    {
        "zip": 3604,
        "city": "Ózd"
    },
    {
        "zip": 3607,
        "city": "Ózd"
    },
    {
        "zip": 3608,
        "city": "Ózd"
    },
    {
        "zip": 3621,
        "city": "Ózd"
    },
    {
        "zip": 3622,
        "city": "Uppony"
    },
    {
        "zip": 3623,
        "city": "Borsodszentgyörgy"
    },
    {
        "zip": 3625,
        "city": "Borsodszentgyörgy"
    },
    {
        "zip": 3626,
        "city": "Hangony"
    },
    {
        "zip": 3627,
        "city": "Kissikátor"
    },
    {
        "zip": 3627,
        "city": "Domaháza"
    },
    {
        "zip": 3630,
        "city": "Putnok"
    },
    {
        "zip": 3635,
        "city": "Dubicsány"
    },
    {
        "zip": 3636,
        "city": "Sajógalgóc"
    },
    {
        "zip": 3636,
        "city": "Vadna"
    },
    {
        "zip": 3641,
        "city": "Nagybarca"
    },
    {
        "zip": 3642,
        "city": "Bánhorváti"
    },
    {
        "zip": 3643,
        "city": "Dédestapolcsány"
    },
    {
        "zip": 3644,
        "city": "Tardona"
    },
    {
        "zip": 3645,
        "city": "Mályinka"
    },
    {
        "zip": 3646,
        "city": "Nekézseny"
    },
    {
        "zip": 3647,
        "city": "Csokvaomány"
    },
    {
        "zip": 3648,
        "city": "Lénárddaróc"
    },
    {
        "zip": 3648,
        "city": "Bükkmogyorósd"
    },
    {
        "zip": 3648,
        "city": "Csernely"
    },
    {
        "zip": 3651,
        "city": "Lénárddaróc"
    },
    {
        "zip": 3652,
        "city": "Sajónémeti"
    },
    {
        "zip": 3653,
        "city": "Sajópüspöki"
    },
    {
        "zip": 3654,
        "city": "Bánréve"
    },
    {
        "zip": 3655,
        "city": "Hét"
    },
    {
        "zip": 3656,
        "city": "Sajómercse"
    },
    {
        "zip": 3656,
        "city": "Sajóvelezd"
    },
    {
        "zip": 3657,
        "city": "Királd"
    },
    {
        "zip": 3658,
        "city": "Borsodbóta"
    },
    {
        "zip": 3659,
        "city": "Sáta"
    },
    {
        "zip": 3661,
        "city": "Sáta"
    },
    {
        "zip": 3662,
        "city": "Sáta"
    },
    {
        "zip": 3663,
        "city": "Arló"
    },
    {
        "zip": 3664,
        "city": "Járdánháza"
    },
    {
        "zip": 3671,
        "city": "Borsodnádasd"
    },
    {
        "zip": 3672,
        "city": "Borsodnádasd"
    },
    {
        "zip": 3700,
        "city": "Kazincbarcika"
    },
    {
        "zip": 3701,
        "city": "Kazincbarcika"
    },
    {
        "zip": 3702,
        "city": "Kazincbarcika"
    },
    {
        "zip": 3703,
        "city": "Kazincbarcika"
    },
    {
        "zip": 3704,
        "city": "Kazincbarcika"
    },
    {
        "zip": 3705,
        "city": "Kazincbarcika"
    },
    {
        "zip": 3711,
        "city": "Szirmabesenyő"
    },
    {
        "zip": 3712,
        "city": "Sajósenye"
    },
    {
        "zip": 3712,
        "city": "Sajóvámos"
    },
    {
        "zip": 3713,
        "city": "Arnót"
    },
    {
        "zip": 3714,
        "city": "Sajópálfala"
    },
    {
        "zip": 3715,
        "city": "Gesztely"
    },
    {
        "zip": 3716,
        "city": "Újcsanálos"
    },
    {
        "zip": 3716,
        "city": "Sóstófalva"
    },
    {
        "zip": 3717,
        "city": "Alsódobsza"
    },
    {
        "zip": 3718,
        "city": "Megyaszó"
    },
    {
        "zip": 3720,
        "city": "Sajókaza"
    },
    {
        "zip": 3720,
        "city": "Sajóivánka"
    },
    {
        "zip": 3721,
        "city": "Felsőnyárád"
    },
    {
        "zip": 3721,
        "city": "Jákfalva"
    },
    {
        "zip": 3721,
        "city": "Dövény"
    },
    {
        "zip": 3722,
        "city": "Felsőkelecsény"
    },
    {
        "zip": 3723,
        "city": "Zubogy"
    },
    {
        "zip": 3724,
        "city": "Imola"
    },
    {
        "zip": 3724,
        "city": "Ragály"
    },
    {
        "zip": 3724,
        "city": "Trizs"
    },
    {
        "zip": 3726,
        "city": "Alsószuha"
    },
    {
        "zip": 3726,
        "city": "Szuhafő"
    },
    {
        "zip": 3726,
        "city": "Zádorfalva"
    },
    {
        "zip": 3728,
        "city": "Gömörszőlős"
    },
    {
        "zip": 3728,
        "city": "Kelemér"
    },
    {
        "zip": 3729,
        "city": "Serényfalva"
    },
    {
        "zip": 3731,
        "city": "Szuhakálló"
    },
    {
        "zip": 3732,
        "city": "Kurityán"
    },
    {
        "zip": 3733,
        "city": "Rudabánya"
    },
    {
        "zip": 3734,
        "city": "Szuhogy"
    },
    {
        "zip": 3735,
        "city": "Kánó"
    },
    {
        "zip": 3735,
        "city": "Felsőtelekes"
    },
    {
        "zip": 3735,
        "city": "Alsótelekes"
    },
    {
        "zip": 3741,
        "city": "Izsófalva"
    },
    {
        "zip": 3742,
        "city": "Rudolftelep"
    },
    {
        "zip": 3743,
        "city": "Ormosbánya"
    },
    {
        "zip": 3744,
        "city": "Múcsony"
    },
    {
        "zip": 3751,
        "city": "Szendrőlád"
    },
    {
        "zip": 3752,
        "city": "Galvács"
    },
    {
        "zip": 3752,
        "city": "Szendrő"
    },
    {
        "zip": 3753,
        "city": "Abod"
    },
    {
        "zip": 3754,
        "city": "Szalonna"
    },
    {
        "zip": 3754,
        "city": "Meszes"
    },
    {
        "zip": 3755,
        "city": "Martonyi"
    },
    {
        "zip": 3756,
        "city": "Varbóc"
    },
    {
        "zip": 3756,
        "city": "Perkupa"
    },
    {
        "zip": 3757,
        "city": "Égerszög"
    },
    {
        "zip": 3757,
        "city": "Teresztenye"
    },
    {
        "zip": 3757,
        "city": "Szőlősardó"
    },
    {
        "zip": 3758,
        "city": "Jósvafő"
    },
    {
        "zip": 3759,
        "city": "Aggtelek"
    },
    {
        "zip": 3761,
        "city": "Szin"
    },
    {
        "zip": 3761,
        "city": "Tornakápolna"
    },
    {
        "zip": 3761,
        "city": "Szinpetri"
    },
    {
        "zip": 3762,
        "city": "Szögliget"
    },
    {
        "zip": 3763,
        "city": "Bódvaszilas"
    },
    {
        "zip": 3764,
        "city": "Bódvarákó"
    },
    {
        "zip": 3765,
        "city": "Tornaszentandrás"
    },
    {
        "zip": 3765,
        "city": "Komjáti"
    },
    {
        "zip": 3765,
        "city": "Tornabarakony"
    },
    {
        "zip": 3767,
        "city": "Tornanádaska"
    },
    {
        "zip": 3768,
        "city": "Hidvégardó"
    },
    {
        "zip": 3768,
        "city": "Bódvalenke"
    },
    {
        "zip": 3768,
        "city": "Becskeháza"
    },
    {
        "zip": 3769,
        "city": "Tornaszentjakab"
    },
    {
        "zip": 3770,
        "city": "Sajószentpéter"
    },
    {
        "zip": 3773,
        "city": "Sajókápolna"
    },
    {
        "zip": 3773,
        "city": "Sajólászlófalva"
    },
    {
        "zip": 3775,
        "city": "Kondó"
    },
    {
        "zip": 3776,
        "city": "Radostyán"
    },
    {
        "zip": 3777,
        "city": "Parasznya"
    },
    {
        "zip": 3778,
        "city": "Varbó"
    },
    {
        "zip": 3779,
        "city": "Alacska"
    },
    {
        "zip": 3780,
        "city": "Ládbesenyő"
    },
    {
        "zip": 3780,
        "city": "Damak"
    },
    {
        "zip": 3780,
        "city": "Balajt"
    },
    {
        "zip": 3780,
        "city": "Edelény"
    },
    {
        "zip": 3783,
        "city": "Ládbesenyő"
    },
    {
        "zip": 3786,
        "city": "Irota"
    },
    {
        "zip": 3786,
        "city": "Szakácsi"
    },
    {
        "zip": 3786,
        "city": "Hegymeg"
    },
    {
        "zip": 3786,
        "city": "Lak"
    },
    {
        "zip": 3787,
        "city": "Tomor"
    },
    {
        "zip": 3791,
        "city": "Sajókeresztúr"
    },
    {
        "zip": 3792,
        "city": "Sajóbábony"
    },
    {
        "zip": 3793,
        "city": "Sajóecseg"
    },
    {
        "zip": 3794,
        "city": "Boldva"
    },
    {
        "zip": 3794,
        "city": "Ziliz"
    },
    {
        "zip": 3795,
        "city": "Hangács"
    },
    {
        "zip": 3795,
        "city": "Nyomár"
    },
    {
        "zip": 3796,
        "city": "Borsodszirák"
    },
    {
        "zip": 3800,
        "city": "Szikszó"
    },
    {
        "zip": 3809,
        "city": "Abaújszolnok"
    },
    {
        "zip": 3809,
        "city": "Nyésta"
    },
    {
        "zip": 3809,
        "city": "Selyeb"
    },
    {
        "zip": 3811,
        "city": "Alsóvadász"
    },
    {
        "zip": 3812,
        "city": "Monaj"
    },
    {
        "zip": 3812,
        "city": "Homrogd"
    },
    {
        "zip": 3813,
        "city": "Kupa"
    },
    {
        "zip": 3814,
        "city": "Felsővadász"
    },
    {
        "zip": 3815,
        "city": "Gadna"
    },
    {
        "zip": 3815,
        "city": "Abaújlak"
    },
    {
        "zip": 3816,
        "city": "Gagyvendégi"
    },
    {
        "zip": 3817,
        "city": "Gagybátor"
    },
    {
        "zip": 3821,
        "city": "Pamlény"
    },
    {
        "zip": 3821,
        "city": "Büttös"
    },
    {
        "zip": 3821,
        "city": "Szászfa"
    },
    {
        "zip": 3821,
        "city": "Kány"
    },
    {
        "zip": 3821,
        "city": "Perecse"
    },
    {
        "zip": 3821,
        "city": "Krasznokvajda"
    },
    {
        "zip": 3821,
        "city": "Keresztéte"
    },
    {
        "zip": 3825,
        "city": "Debréte"
    },
    {
        "zip": 3825,
        "city": "Rakaca"
    },
    {
        "zip": 3825,
        "city": "Viszló"
    },
    {
        "zip": 3826,
        "city": "Rakacaszend"
    },
    {
        "zip": 3831,
        "city": "Kázsmárk"
    },
    {
        "zip": 3832,
        "city": "Léh"
    },
    {
        "zip": 3833,
        "city": "Rásonysápberencs"
    },
    {
        "zip": 3834,
        "city": "Beret"
    },
    {
        "zip": 3834,
        "city": "Detek"
    },
    {
        "zip": 3836,
        "city": "Baktakék"
    },
    {
        "zip": 3837,
        "city": "Felsőgagy"
    },
    {
        "zip": 3837,
        "city": "Gagyapáti"
    },
    {
        "zip": 3837,
        "city": "Alsógagy"
    },
    {
        "zip": 3837,
        "city": "Csenyéte"
    },
    {
        "zip": 3841,
        "city": "Aszaló"
    },
    {
        "zip": 3842,
        "city": "Halmaj"
    },
    {
        "zip": 3843,
        "city": "Kiskinizs"
    },
    {
        "zip": 3844,
        "city": "Szentistvánbaksa"
    },
    {
        "zip": 3844,
        "city": "Nagykinizs"
    },
    {
        "zip": 3846,
        "city": "Hernádkércs"
    },
    {
        "zip": 3847,
        "city": "Felsődobsza"
    },
    {
        "zip": 3848,
        "city": "Csobád"
    },
    {
        "zip": 3849,
        "city": "Forró"
    },
    {
        "zip": 3851,
        "city": "Ináncs"
    },
    {
        "zip": 3852,
        "city": "Hernádszentandrás"
    },
    {
        "zip": 3853,
        "city": "Pere"
    },
    {
        "zip": 3853,
        "city": "Hernádbűd"
    },
    {
        "zip": 3854,
        "city": "Hernádbűd"
    },
    {
        "zip": 3855,
        "city": "Fancsal"
    },
    {
        "zip": 3860,
        "city": "Encs"
    },
    {
        "zip": 3861,
        "city": "Encs"
    },
    {
        "zip": 3863,
        "city": "Szalaszend"
    },
    {
        "zip": 3864,
        "city": "Fulókércs"
    },
    {
        "zip": 3865,
        "city": "Fáj"
    },
    {
        "zip": 3866,
        "city": "Szemere"
    },
    {
        "zip": 3866,
        "city": "Litka"
    },
    {
        "zip": 3871,
        "city": "Méra"
    },
    {
        "zip": 3872,
        "city": "Novajidrány"
    },
    {
        "zip": 3873,
        "city": "Garadna"
    },
    {
        "zip": 3874,
        "city": "Pusztaradvány"
    },
    {
        "zip": 3874,
        "city": "Hernádvécse"
    },
    {
        "zip": 3874,
        "city": "Hernádpetri"
    },
    {
        "zip": 3875,
        "city": "Hernádszurdok"
    },
    {
        "zip": 3876,
        "city": "Hidasnémeti"
    },
    {
        "zip": 3877,
        "city": "Tornyosnémeti"
    },
    {
        "zip": 3881,
        "city": "Abaújszántó"
    },
    {
        "zip": 3881,
        "city": "Sima"
    },
    {
        "zip": 3881,
        "city": "Baskó"
    },
    {
        "zip": 3882,
        "city": "Abaújalpár"
    },
    {
        "zip": 3882,
        "city": "Abaújkér"
    },
    {
        "zip": 3884,
        "city": "Boldogkőújfalu"
    },
    {
        "zip": 3885,
        "city": "Boldogkőváralja"
    },
    {
        "zip": 3885,
        "city": "Arka"
    },
    {
        "zip": 3886,
        "city": "Korlát"
    },
    {
        "zip": 3887,
        "city": "Hernádcéce"
    },
    {
        "zip": 3888,
        "city": "Vizsoly"
    },
    {
        "zip": 3891,
        "city": "Vilmány"
    },
    {
        "zip": 3892,
        "city": "Hejce"
    },
    {
        "zip": 3893,
        "city": "Regéc"
    },
    {
        "zip": 3893,
        "city": "Fony"
    },
    {
        "zip": 3893,
        "city": "Mogyoróska"
    },
    {
        "zip": 3894,
        "city": "Göncruszka"
    },
    {
        "zip": 3895,
        "city": "Gönc"
    },
    {
        "zip": 3896,
        "city": "Telkibánya"
    },
    {
        "zip": 3897,
        "city": "Zsujta"
    },
    {
        "zip": 3898,
        "city": "Abaújvár"
    },
    {
        "zip": 3898,
        "city": "Pányok"
    },
    {
        "zip": 3899,
        "city": "Kéked"
    },
    {
        "zip": 3900,
        "city": "Szerencs"
    },
    {
        "zip": 3901,
        "city": "Szerencs"
    },
    {
        "zip": 3903,
        "city": "Bekecs"
    },
    {
        "zip": 3904,
        "city": "Legyesbénye"
    },
    {
        "zip": 3905,
        "city": "Monok"
    },
    {
        "zip": 3906,
        "city": "Golop"
    },
    {
        "zip": 3907,
        "city": "Tállya"
    },
    {
        "zip": 3908,
        "city": "Rátka"
    },
    {
        "zip": 3909,
        "city": "Mád"
    },
    {
        "zip": 3910,
        "city": "Tokaj"
    },
    {
        "zip": 3911,
        "city": "Tokaj"
    },
    {
        "zip": 3915,
        "city": "Tarcal"
    },
    {
        "zip": 3916,
        "city": "Bodrogkeresztúr"
    },
    {
        "zip": 3917,
        "city": "Bodrogkisfalud"
    },
    {
        "zip": 3918,
        "city": "Szegi"
    },
    {
        "zip": 3918,
        "city": "Szegilong"
    },
    {
        "zip": 3921,
        "city": "Taktaszada"
    },
    {
        "zip": 3922,
        "city": "Taktaharkány"
    },
    {
        "zip": 3923,
        "city": "Taktaharkány"
    },
    {
        "zip": 3924,
        "city": "Taktakenéz"
    },
    {
        "zip": 3925,
        "city": "Prügy"
    },
    {
        "zip": 3926,
        "city": "Taktabáj"
    },
    {
        "zip": 3927,
        "city": "Csobaj"
    },
    {
        "zip": 3928,
        "city": "Tiszatardos"
    },
    {
        "zip": 3929,
        "city": "Tiszaladány"
    },
    {
        "zip": 3931,
        "city": "Mezőzombor"
    },
    {
        "zip": 3932,
        "city": "Erdőbénye"
    },
    {
        "zip": 3933,
        "city": "Olaszliszka"
    },
    {
        "zip": 3934,
        "city": "Tolcsva"
    },
    {
        "zip": 3935,
        "city": "Erdőhorváti"
    },
    {
        "zip": 3936,
        "city": "Háromhuta"
    },
    {
        "zip": 3937,
        "city": "Komlóska"
    },
    {
        "zip": 3941,
        "city": "Vámosújfalu"
    },
    {
        "zip": 3942,
        "city": "Sárazsadány"
    },
    {
        "zip": 3943,
        "city": "Bodrogolaszi"
    },
    {
        "zip": 3944,
        "city": "Bodrogolaszi"
    },
    {
        "zip": 3945,
        "city": "Bodrogolaszi"
    },
    {
        "zip": 3950,
        "city": "Sárospatak"
    },
    {
        "zip": 3954,
        "city": "Györgytarló"
    },
    {
        "zip": 3955,
        "city": "Kenézlő"
    },
    {
        "zip": 3956,
        "city": "Viss"
    },
    {
        "zip": 3957,
        "city": "Zalkod"
    },
    {
        "zip": 3958,
        "city": "Hercegkút"
    },
    {
        "zip": 3959,
        "city": "Makkoshotyka"
    },
    {
        "zip": 3961,
        "city": "Vajdácska"
    },
    {
        "zip": 3962,
        "city": "Karos"
    },
    {
        "zip": 3963,
        "city": "Karcsa"
    },
    {
        "zip": 3964,
        "city": "Pácin"
    },
    {
        "zip": 3965,
        "city": "Kisrozvágy"
    },
    {
        "zip": 3965,
        "city": "Nagyrozvágy"
    },
    {
        "zip": 3967,
        "city": "Lácacséke"
    },
    {
        "zip": 3971,
        "city": "Tiszakarád"
    },
    {
        "zip": 3972,
        "city": "Tiszacsermely"
    },
    {
        "zip": 3973,
        "city": "Cigánd"
    },
    {
        "zip": 3974,
        "city": "Ricse"
    },
    {
        "zip": 3974,
        "city": "Semjén"
    },
    {
        "zip": 3976,
        "city": "Révleányvár"
    },
    {
        "zip": 3977,
        "city": "Zemplénagárd"
    },
    {
        "zip": 3978,
        "city": "Dámóc"
    },
    {
        "zip": 3980,
        "city": "Sátoraljaújhely"
    },
    {
        "zip": 3981,
        "city": "Sátoraljaújhely"
    },
    {
        "zip": 3985,
        "city": "Felsőberecki"
    },
    {
        "zip": 3985,
        "city": "Alsóberecki"
    },
    {
        "zip": 3987,
        "city": "Bodroghalom"
    },
    {
        "zip": 3988,
        "city": "Bodroghalom"
    },
    {
        "zip": 3989,
        "city": "Mikóháza"
    },
    {
        "zip": 3989,
        "city": "Felsőregmec"
    },
    {
        "zip": 3989,
        "city": "Alsóregmec"
    },
    {
        "zip": 3991,
        "city": "Vilyvitány"
    },
    {
        "zip": 3992,
        "city": "Vágáshuta"
    },
    {
        "zip": 3992,
        "city": "Kovácsvágás"
    },
    {
        "zip": 3993,
        "city": "Füzérradvány"
    },
    {
        "zip": 3994,
        "city": "Kishuta"
    },
    {
        "zip": 3994,
        "city": "Filkeháza"
    },
    {
        "zip": 3994,
        "city": "Nagyhuta"
    },
    {
        "zip": 3994,
        "city": "Füzérkajata"
    },
    {
        "zip": 3994,
        "city": "Pálháza"
    },
    {
        "zip": 3994,
        "city": "Bózsva"
    },
    {
        "zip": 3995,
        "city": "Pusztafalu"
    },
    {
        "zip": 3996,
        "city": "Füzér"
    },
    {
        "zip": 3997,
        "city": "Füzérkomlós"
    },
    {
        "zip": 3998,
        "city": "Nyíri"
    },
    {
        "zip": 3999,
        "city": "Hollóháza"
    },
    {
        "zip": 4000,
        "city": "Debrecen"
    },
    {
        "zip": 4001,
        "city": "Debrecen"
    },
    {
        "zip": 4002,
        "city": "Debrecen"
    },
    {
        "zip": 4003,
        "city": "Debrecen"
    },
    {
        "zip": 4004,
        "city": "Debrecen"
    },
    {
        "zip": 4005,
        "city": "Debrecen"
    },
    {
        "zip": 4006,
        "city": "Debrecen"
    },
    {
        "zip": 4007,
        "city": "Debrecen"
    },
    {
        "zip": 4008,
        "city": "Debrecen"
    },
    {
        "zip": 4009,
        "city": "Debrecen"
    },
    {
        "zip": 4010,
        "city": "Debrecen"
    },
    {
        "zip": 4011,
        "city": "Debrecen"
    },
    {
        "zip": 4012,
        "city": "Debrecen"
    },
    {
        "zip": 4013,
        "city": "Debrecen"
    },
    {
        "zip": 4014,
        "city": "Debrecen"
    },
    {
        "zip": 4015,
        "city": "Debrecen"
    },
    {
        "zip": 4017,
        "city": "Debrecen"
    },
    {
        "zip": 4021,
        "city": "Debrecen"
    },
    {
        "zip": 4022,
        "city": "Debrecen"
    },
    {
        "zip": 4024,
        "city": "Debrecen"
    },
    {
        "zip": 4025,
        "city": "Debrecen"
    },
    {
        "zip": 4026,
        "city": "Debrecen"
    },
    {
        "zip": 4027,
        "city": "Debrecen"
    },
    {
        "zip": 4028,
        "city": "Debrecen"
    },
    {
        "zip": 4029,
        "city": "Debrecen"
    },
    {
        "zip": 4030,
        "city": "Debrecen"
    },
    {
        "zip": 4031,
        "city": "Debrecen"
    },
    {
        "zip": 4032,
        "city": "Debrecen"
    },
    {
        "zip": 4033,
        "city": "Debrecen"
    },
    {
        "zip": 4034,
        "city": "Debrecen"
    },
    {
        "zip": 4040,
        "city": "Debrecen"
    },
    {
        "zip": 4041,
        "city": "Debrecen"
    },
    {
        "zip": 4042,
        "city": "Debrecen"
    },
    {
        "zip": 4044,
        "city": "Debrecen"
    },
    {
        "zip": 4045,
        "city": "Debrecen"
    },
    {
        "zip": 4046,
        "city": "Debrecen"
    },
    {
        "zip": 4047,
        "city": "Debrecen"
    },
    {
        "zip": 4048,
        "city": "Debrecen"
    },
    {
        "zip": 4060,
        "city": "Balmazújváros"
    },
    {
        "zip": 4063,
        "city": "Balmazújváros"
    },
    {
        "zip": 4063,
        "city": "Debrecen"
    },
    {
        "zip": 4064,
        "city": "Nagyhegyes"
    },
    {
        "zip": 4065,
        "city": "Újszentmargita"
    },
    {
        "zip": 4066,
        "city": "Tiszacsege"
    },
    {
        "zip": 4067,
        "city": "Tiszacsege"
    },
    {
        "zip": 4069,
        "city": "Egyek"
    },
    {
        "zip": 4071,
        "city": "Hortobágy"
    },
    {
        "zip": 4074,
        "city": "Tarnalelesz"
    },
    {
        "zip": 4075,
        "city": "Görbeháza"
    },
    {
        "zip": 4078,
        "city": "Görbeháza"
    },
    {
        "zip": 4079,
        "city": "Görbeháza"
    },
    {
        "zip": 4080,
        "city": "Hajdúnánás"
    },
    {
        "zip": 4081,
        "city": "Hajdúnánás"
    },
    {
        "zip": 4085,
        "city": "Hajdúnánás"
    },
    {
        "zip": 4086,
        "city": "Hajdúnánás"
    },
    {
        "zip": 4087,
        "city": "Hajdúdorog"
    },
    {
        "zip": 4090,
        "city": "Polgár"
    },
    {
        "zip": 4090,
        "city": "Folyás"
    },
    {
        "zip": 4096,
        "city": "Újtikos"
    },
    {
        "zip": 4097,
        "city": "Tiszagyulaháza"
    },
    {
        "zip": 4100,
        "city": "Berettyóújfalu"
    },
    {
        "zip": 4101,
        "city": "Berettyóújfalu"
    },
    {
        "zip": 4103,
        "city": "Berettyóújfalu"
    },
    {
        "zip": 4110,
        "city": "Biharkeresztes"
    },
    {
        "zip": 4114,
        "city": "Bojt"
    },
    {
        "zip": 4115,
        "city": "Ártánd"
    },
    {
        "zip": 4116,
        "city": "Berekböszörmény"
    },
    {
        "zip": 4117,
        "city": "Told"
    },
    {
        "zip": 4118,
        "city": "Mezőpeterd"
    },
    {
        "zip": 4119,
        "city": "Váncsod"
    },
    {
        "zip": 4121,
        "city": "Szentpéterszeg"
    },
    {
        "zip": 4122,
        "city": "Gáborján"
    },
    {
        "zip": 4123,
        "city": "Hencida"
    },
    {
        "zip": 4124,
        "city": "Esztár"
    },
    {
        "zip": 4125,
        "city": "Pocsaj"
    },
    {
        "zip": 4126,
        "city": "Kismarja"
    },
    {
        "zip": 4127,
        "city": "Nagykereki"
    },
    {
        "zip": 4128,
        "city": "Bedő"
    },
    {
        "zip": 4130,
        "city": "Derecske"
    },
    {
        "zip": 4131,
        "city": "Derecske"
    },
    {
        "zip": 4132,
        "city": "Tépe"
    },
    {
        "zip": 4133,
        "city": "Konyár"
    },
    {
        "zip": 4134,
        "city": "Mezősas"
    },
    {
        "zip": 4135,
        "city": "Körösszegapáti"
    },
    {
        "zip": 4136,
        "city": "Körösszakál"
    },
    {
        "zip": 4137,
        "city": "Magyarhomorog"
    },
    {
        "zip": 4138,
        "city": "Komádi"
    },
    {
        "zip": 4141,
        "city": "Furta"
    },
    {
        "zip": 4142,
        "city": "Zsáka"
    },
    {
        "zip": 4143,
        "city": "Vekerd"
    },
    {
        "zip": 4144,
        "city": "Darvas"
    },
    {
        "zip": 4145,
        "city": "Csökmő"
    },
    {
        "zip": 4146,
        "city": "Újiráz"
    },
    {
        "zip": 4150,
        "city": "Püspökladány"
    },
    {
        "zip": 4151,
        "city": "Püspökladány"
    },
    {
        "zip": 4152,
        "city": "Püspökladány"
    },
    {
        "zip": 4155,
        "city": "Püspökladány"
    },
    {
        "zip": 4161,
        "city": "Báránd"
    },
    {
        "zip": 4162,
        "city": "Báránd"
    },
    {
        "zip": 4163,
        "city": "Szerep"
    },
    {
        "zip": 4164,
        "city": "Bakonszeg"
    },
    {
        "zip": 4171,
        "city": "Sárrétudvari"
    },
    {
        "zip": 4172,
        "city": "Biharnagybajom"
    },
    {
        "zip": 4173,
        "city": "Nagyrábé"
    },
    {
        "zip": 4174,
        "city": "Bihartorda"
    },
    {
        "zip": 4175,
        "city": "Bihardancsháza"
    },
    {
        "zip": 4176,
        "city": "Sáp"
    },
    {
        "zip": 4177,
        "city": "Földes"
    },
    {
        "zip": 4181,
        "city": "Nádudvar"
    },
    {
        "zip": 4183,
        "city": "Kaba"
    },
    {
        "zip": 4184,
        "city": "Tetétlen"
    },
    {
        "zip": 4200,
        "city": "Hajdúszoboszló"
    },
    {
        "zip": 4201,
        "city": "Hajdúszoboszló"
    },
    {
        "zip": 4202,
        "city": "Hajdúszoboszló"
    },
    {
        "zip": 4211,
        "city": "Ebes"
    },
    {
        "zip": 4212,
        "city": "Hajdúszovát"
    },
    {
        "zip": 4220,
        "city": "Hajdúböszörmény"
    },
    {
        "zip": 4221,
        "city": "Hajdúböszörmény"
    },
    {
        "zip": 4224,
        "city": "Hajdúböszörmény"
    },
    {
        "zip": 4225,
        "city": "Hajdúböszörmény"
    },
    {
        "zip": 4225,
        "city": "Debrecen"
    },
    {
        "zip": 4231,
        "city": "Bököny"
    },
    {
        "zip": 4232,
        "city": "Geszteréd"
    },
    {
        "zip": 4233,
        "city": "Balkány"
    },
    {
        "zip": 4234,
        "city": "Szakoly"
    },
    {
        "zip": 4235,
        "city": "Biri"
    },
    {
        "zip": 4241,
        "city": "Bocskaikert"
    },
    {
        "zip": 4242,
        "city": "Hajdúhadház"
    },
    {
        "zip": 4243,
        "city": "Téglás"
    },
    {
        "zip": 4244,
        "city": "Újfehértó"
    },
    {
        "zip": 4245,
        "city": "Érpatak"
    },
    {
        "zip": 4246,
        "city": "Érpatak"
    },
    {
        "zip": 4251,
        "city": "Hajdúsámson"
    },
    {
        "zip": 4252,
        "city": "Hajdúsámson"
    },
    {
        "zip": 4253,
        "city": "Hajdúsámson"
    },
    {
        "zip": 4254,
        "city": "Nyíradony"
    },
    {
        "zip": 4262,
        "city": "Nyíracsád"
    },
    {
        "zip": 4263,
        "city": "Nyírmártonfalva"
    },
    {
        "zip": 4264,
        "city": "Nyírábrány"
    },
    {
        "zip": 4266,
        "city": "Fülöp"
    },
    {
        "zip": 4267,
        "city": "Penészlek"
    },
    {
        "zip": 4271,
        "city": "Mikepércs"
    },
    {
        "zip": 4272,
        "city": "Sáránd"
    },
    {
        "zip": 4273,
        "city": "Hajdúbagos"
    },
    {
        "zip": 4274,
        "city": "Hosszúpályi"
    },
    {
        "zip": 4275,
        "city": "Monostorpályi"
    },
    {
        "zip": 4281,
        "city": "Létavértes"
    },
    {
        "zip": 4283,
        "city": "Létavértes"
    },
    {
        "zip": 4284,
        "city": "Kokad"
    },
    {
        "zip": 4285,
        "city": "Álmosd"
    },
    {
        "zip": 4286,
        "city": "Bagamér"
    },
    {
        "zip": 4287,
        "city": "Vámospércs"
    },
    {
        "zip": 4288,
        "city": "Újléta"
    },
    {
        "zip": 4300,
        "city": "Nyírbátor"
    },
    {
        "zip": 4301,
        "city": "Nyírbátor"
    },
    {
        "zip": 4311,
        "city": "Nyírgyulaj"
    },
    {
        "zip": 4320,
        "city": "Nagykálló"
    },
    {
        "zip": 4321,
        "city": "Nagykálló"
    },
    {
        "zip": 4324,
        "city": "Kállósemjén"
    },
    {
        "zip": 4325,
        "city": "Kisléta"
    },
    {
        "zip": 4326,
        "city": "Máriapócs"
    },
    {
        "zip": 4327,
        "city": "Pócspetri"
    },
    {
        "zip": 4331,
        "city": "Nyírcsászári"
    },
    {
        "zip": 4332,
        "city": "Nyírderzs"
    },
    {
        "zip": 4333,
        "city": "Nyírkáta"
    },
    {
        "zip": 4334,
        "city": "Hodász"
    },
    {
        "zip": 4335,
        "city": "Kántorjánosi"
    },
    {
        "zip": 4336,
        "city": "Őr"
    },
    {
        "zip": 4337,
        "city": "Jármi"
    },
    {
        "zip": 4338,
        "city": "Papos"
    },
    {
        "zip": 4341,
        "city": "Nyírvasvári"
    },
    {
        "zip": 4342,
        "city": "Terem"
    },
    {
        "zip": 4343,
        "city": "Bátorliget"
    },
    {
        "zip": 4351,
        "city": "Vállaj"
    },
    {
        "zip": 4352,
        "city": "Mérk"
    },
    {
        "zip": 4353,
        "city": "Tiborszállás"
    },
    {
        "zip": 4354,
        "city": "Fábiánháza"
    },
    {
        "zip": 4355,
        "city": "Nagyecsed"
    },
    {
        "zip": 4356,
        "city": "Nyírcsaholy"
    },
    {
        "zip": 4361,
        "city": "Nyírbogát"
    },
    {
        "zip": 4362,
        "city": "Nyírgelse"
    },
    {
        "zip": 4363,
        "city": "Nyírmihálydi"
    },
    {
        "zip": 4371,
        "city": "Nyírlugos"
    },
    {
        "zip": 4372,
        "city": "Nyírbéltek"
    },
    {
        "zip": 4373,
        "city": "Ömböly"
    },
    {
        "zip": 4374,
        "city": "Encsencs"
    },
    {
        "zip": 4375,
        "city": "Piricse"
    },
    {
        "zip": 4376,
        "city": "Nyírpilis"
    },
    {
        "zip": 4400,
        "city": "Nyíregyháza"
    },
    {
        "zip": 4401,
        "city": "Nyíregyháza"
    },
    {
        "zip": 4402,
        "city": "Nyíregyháza"
    },
    {
        "zip": 4403,
        "city": "Nyíregyháza"
    },
    {
        "zip": 4404,
        "city": "Nyíregyháza"
    },
    {
        "zip": 4405,
        "city": "Nyíregyháza"
    },
    {
        "zip": 4406,
        "city": "Nyíregyháza"
    },
    {
        "zip": 4407,
        "city": "Nyíregyháza"
    },
    {
        "zip": 4410,
        "city": "Nyíregyháza"
    },
    {
        "zip": 4411,
        "city": "Nyíregyháza"
    },
    {
        "zip": 4412,
        "city": "Nyíregyháza"
    },
    {
        "zip": 4413,
        "city": "Nyíregyháza"
    },
    {
        "zip": 4431,
        "city": "Nyíregyháza"
    },
    {
        "zip": 4432,
        "city": "Nyíregyháza"
    },
    {
        "zip": 4433,
        "city": "Nyíregyháza"
    },
    {
        "zip": 4434,
        "city": "Kálmánháza"
    },
    {
        "zip": 4435,
        "city": "Nyíregyháza"
    },
    {
        "zip": 4440,
        "city": "Tiszavasvári"
    },
    {
        "zip": 4441,
        "city": "Szorgalmatos"
    },
    {
        "zip": 4444,
        "city": "Szorgalmatos"
    },
    {
        "zip": 4445,
        "city": "Nagycserkesz"
    },
    {
        "zip": 4446,
        "city": "Nagycserkesz"
    },
    {
        "zip": 4447,
        "city": "Nagycserkesz"
    },
    {
        "zip": 4450,
        "city": "Tiszalök"
    },
    {
        "zip": 4455,
        "city": "Tiszadada"
    },
    {
        "zip": 4456,
        "city": "Tiszadob"
    },
    {
        "zip": 4461,
        "city": "Nyírtelek"
    },
    {
        "zip": 4463,
        "city": "Tiszanagyfalu"
    },
    {
        "zip": 4464,
        "city": "Tiszaeszlár"
    },
    {
        "zip": 4465,
        "city": "Rakamaz"
    },
    {
        "zip": 4466,
        "city": "Timár"
    },
    {
        "zip": 4467,
        "city": "Szabolcs"
    },
    {
        "zip": 4468,
        "city": "Balsa"
    },
    {
        "zip": 4471,
        "city": "Gávavencsellő"
    },
    {
        "zip": 4472,
        "city": "Gávavencsellő"
    },
    {
        "zip": 4474,
        "city": "Tiszabercel"
    },
    {
        "zip": 4475,
        "city": "Paszab"
    },
    {
        "zip": 4481,
        "city": "Paszab"
    },
    {
        "zip": 4482,
        "city": "Kótaj"
    },
    {
        "zip": 4483,
        "city": "Buj"
    },
    {
        "zip": 4484,
        "city": "Ibrány"
    },
    {
        "zip": 4485,
        "city": "Nagyhalász"
    },
    {
        "zip": 4486,
        "city": "Nagyhalász"
    },
    {
        "zip": 4487,
        "city": "Tiszatelek"
    },
    {
        "zip": 4488,
        "city": "Beszterec"
    },
    {
        "zip": 4491,
        "city": "Újdombrád"
    },
    {
        "zip": 4492,
        "city": "Dombrád"
    },
    {
        "zip": 4493,
        "city": "Tiszakanyár"
    },
    {
        "zip": 4494,
        "city": "Kékcse"
    },
    {
        "zip": 4495,
        "city": "Döge"
    },
    {
        "zip": 4496,
        "city": "Szabolcsveresmart"
    },
    {
        "zip": 4501,
        "city": "Kemecse"
    },
    {
        "zip": 4502,
        "city": "Vasmegyer"
    },
    {
        "zip": 4503,
        "city": "Tiszarád"
    },
    {
        "zip": 4511,
        "city": "Nyírbogdány"
    },
    {
        "zip": 4512,
        "city": "Nyírbogdány"
    },
    {
        "zip": 4515,
        "city": "Kék"
    },
    {
        "zip": 4516,
        "city": "Demecser"
    },
    {
        "zip": 4517,
        "city": "Gégény"
    },
    {
        "zip": 4521,
        "city": "Berkesz"
    },
    {
        "zip": 4522,
        "city": "Nyírtass"
    },
    {
        "zip": 4523,
        "city": "Pátroha"
    },
    {
        "zip": 4524,
        "city": "Ajak"
    },
    {
        "zip": 4525,
        "city": "Rétközberencs"
    },
    {
        "zip": 4531,
        "city": "Nyírpazony"
    },
    {
        "zip": 4532,
        "city": "Nyírtura"
    },
    {
        "zip": 4533,
        "city": "Sényő"
    },
    {
        "zip": 4534,
        "city": "Székely"
    },
    {
        "zip": 4535,
        "city": "Nyíribrony"
    },
    {
        "zip": 4536,
        "city": "Ramocsaháza"
    },
    {
        "zip": 4537,
        "city": "Nyírkércs"
    },
    {
        "zip": 4541,
        "city": "Nyírjákó"
    },
    {
        "zip": 4542,
        "city": "Petneháza"
    },
    {
        "zip": 4543,
        "city": "Laskod"
    },
    {
        "zip": 4544,
        "city": "Nyírkarász"
    },
    {
        "zip": 4545,
        "city": "Gyulaháza"
    },
    {
        "zip": 4546,
        "city": "Anarcs"
    },
    {
        "zip": 4547,
        "city": "Szabolcsbáka"
    },
    {
        "zip": 4551,
        "city": "Szabolcsbáka"
    },
    {
        "zip": 4552,
        "city": "Napkor"
    },
    {
        "zip": 4553,
        "city": "Apagy"
    },
    {
        "zip": 4554,
        "city": "Nyírtét"
    },
    {
        "zip": 4555,
        "city": "Levelek"
    },
    {
        "zip": 4556,
        "city": "Magy"
    },
    {
        "zip": 4557,
        "city": "Besenyőd"
    },
    {
        "zip": 4558,
        "city": "Ófehértó"
    },
    {
        "zip": 4561,
        "city": "Baktalórántháza"
    },
    {
        "zip": 4562,
        "city": "Vaja"
    },
    {
        "zip": 4563,
        "city": "Rohod"
    },
    {
        "zip": 4564,
        "city": "Nyírmada"
    },
    {
        "zip": 4565,
        "city": "Pusztadobos"
    },
    {
        "zip": 4566,
        "city": "Ilk"
    },
    {
        "zip": 4567,
        "city": "Gemzse"
    },
    {
        "zip": 4600,
        "city": "Kisvárda"
    },
    {
        "zip": 4601,
        "city": "Kisvárda"
    },
    {
        "zip": 4603,
        "city": "Kisvárda"
    },
    {
        "zip": 4611,
        "city": "Jéke"
    },
    {
        "zip": 4621,
        "city": "Fényeslitke"
    },
    {
        "zip": 4622,
        "city": "Komoró"
    },
    {
        "zip": 4623,
        "city": "Tuzsér"
    },
    {
        "zip": 4624,
        "city": "Tiszabezdéd"
    },
    {
        "zip": 4625,
        "city": "Győröcske"
    },
    {
        "zip": 4625,
        "city": "Záhony"
    },
    {
        "zip": 4627,
        "city": "Zsurk"
    },
    {
        "zip": 4628,
        "city": "Tiszaszentmárton"
    },
    {
        "zip": 4631,
        "city": "Pap"
    },
    {
        "zip": 4632,
        "city": "Nyírlövő"
    },
    {
        "zip": 4633,
        "city": "Lövőpetri"
    },
    {
        "zip": 4634,
        "city": "Aranyosapáti"
    },
    {
        "zip": 4635,
        "city": "Újkenéz"
    },
    {
        "zip": 4641,
        "city": "Mezőladány"
    },
    {
        "zip": 4642,
        "city": "Tornyospálca"
    },
    {
        "zip": 4643,
        "city": "Benk"
    },
    {
        "zip": 4644,
        "city": "Mándok"
    },
    {
        "zip": 4645,
        "city": "Tiszamogyorós"
    },
    {
        "zip": 4646,
        "city": "Eperjeske"
    },
    {
        "zip": 4700,
        "city": "Mátészalka"
    },
    {
        "zip": 4701,
        "city": "Mátészalka"
    },
    {
        "zip": 4702,
        "city": "Mátészalka"
    },
    {
        "zip": 4721,
        "city": "Szamoskér"
    },
    {
        "zip": 4722,
        "city": "Nyírmeggyes"
    },
    {
        "zip": 4731,
        "city": "Tunyogmatolcs"
    },
    {
        "zip": 4732,
        "city": "Cégénydányád"
    },
    {
        "zip": 4733,
        "city": "Gyügye"
    },
    {
        "zip": 4734,
        "city": "Szamosújlak"
    },
    {
        "zip": 4735,
        "city": "Hermánszeg"
    },
    {
        "zip": 4735,
        "city": "Szamossályi"
    },
    {
        "zip": 4737,
        "city": "Darnó"
    },
    {
        "zip": 4737,
        "city": "Kisnamény"
    },
    {
        "zip": 4741,
        "city": "Jánkmajtis"
    },
    {
        "zip": 4742,
        "city": "Csegöld"
    },
    {
        "zip": 4743,
        "city": "Csengersima"
    },
    {
        "zip": 4745,
        "city": "Szamosbecs"
    },
    {
        "zip": 4746,
        "city": "Szamostatárfalva"
    },
    {
        "zip": 4751,
        "city": "Kocsord"
    },
    {
        "zip": 4752,
        "city": "Győrtelek"
    },
    {
        "zip": 4754,
        "city": "Géberjén"
    },
    {
        "zip": 4754,
        "city": "Fülpösdaróc"
    },
    {
        "zip": 4755,
        "city": "Ököritófülpös"
    },
    {
        "zip": 4756,
        "city": "Rápolt"
    },
    {
        "zip": 4761,
        "city": "Porcsalma"
    },
    {
        "zip": 4762,
        "city": "Tyukod"
    },
    {
        "zip": 4763,
        "city": "Ura"
    },
    {
        "zip": 4764,
        "city": "Csengerújfalu"
    },
    {
        "zip": 4765,
        "city": "Komlódtótfalu"
    },
    {
        "zip": 4765,
        "city": "Csenger"
    },
    {
        "zip": 4766,
        "city": "Pátyod"
    },
    {
        "zip": 4767,
        "city": "Szamosangyalos"
    },
    {
        "zip": 4800,
        "city": "Vásárosnamény"
    },
    {
        "zip": 4801,
        "city": "Vásárosnamény"
    },
    {
        "zip": 4803,
        "city": "Vásárosnamény"
    },
    {
        "zip": 4804,
        "city": "Vásárosnamény"
    },
    {
        "zip": 4811,
        "city": "Kisvarsány"
    },
    {
        "zip": 4812,
        "city": "Nagyvarsány"
    },
    {
        "zip": 4813,
        "city": "Gyüre"
    },
    {
        "zip": 4821,
        "city": "Ópályi"
    },
    {
        "zip": 4822,
        "city": "Nyírparasznya"
    },
    {
        "zip": 4823,
        "city": "Nagydobos"
    },
    {
        "zip": 4824,
        "city": "Szamosszeg"
    },
    {
        "zip": 4826,
        "city": "Olcsva"
    },
    {
        "zip": 4831,
        "city": "Tiszaszalka"
    },
    {
        "zip": 4832,
        "city": "Tiszavid"
    },
    {
        "zip": 4833,
        "city": "Tiszaadony"
    },
    {
        "zip": 4834,
        "city": "Tiszakerecseny"
    },
    {
        "zip": 4835,
        "city": "Mátyus"
    },
    {
        "zip": 4836,
        "city": "Lónya"
    },
    {
        "zip": 4841,
        "city": "Jánd"
    },
    {
        "zip": 4842,
        "city": "Gulács"
    },
    {
        "zip": 4843,
        "city": "Hetefejércse"
    },
    {
        "zip": 4844,
        "city": "Csaroda"
    },
    {
        "zip": 4845,
        "city": "Tákos"
    },
    {
        "zip": 4900,
        "city": "Fehérgyarmat"
    },
    {
        "zip": 4901,
        "city": "Fehérgyarmat"
    },
    {
        "zip": 4911,
        "city": "Nábrád"
    },
    {
        "zip": 4912,
        "city": "Kérsemjén"
    },
    {
        "zip": 4913,
        "city": "Panyola"
    },
    {
        "zip": 4914,
        "city": "Olcsvaapáti"
    },
    {
        "zip": 4921,
        "city": "Tivadar"
    },
    {
        "zip": 4921,
        "city": "Kisar"
    },
    {
        "zip": 4922,
        "city": "Nagyar"
    },
    {
        "zip": 4931,
        "city": "Tarpa"
    },
    {
        "zip": 4932,
        "city": "Márokpapi"
    },
    {
        "zip": 4933,
        "city": "Beregsurány"
    },
    {
        "zip": 4934,
        "city": "Beregdaróc"
    },
    {
        "zip": 4935,
        "city": "Gelénes"
    },
    {
        "zip": 4936,
        "city": "Vámosatya"
    },
    {
        "zip": 4937,
        "city": "Barabás"
    },
    {
        "zip": 4941,
        "city": "Penyige"
    },
    {
        "zip": 4942,
        "city": "Mánd"
    },
    {
        "zip": 4942,
        "city": "Nemesborzova"
    },
    {
        "zip": 4943,
        "city": "Kömörő"
    },
    {
        "zip": 4944,
        "city": "Túristvándi"
    },
    {
        "zip": 4945,
        "city": "Szatmárcseke"
    },
    {
        "zip": 4946,
        "city": "Tiszakóród"
    },
    {
        "zip": 4947,
        "city": "Tiszacsécse"
    },
    {
        "zip": 4948,
        "city": "Milota"
    },
    {
        "zip": 4951,
        "city": "Tiszabecs"
    },
    {
        "zip": 4952,
        "city": "Uszka"
    },
    {
        "zip": 4953,
        "city": "Magosliget"
    },
    {
        "zip": 4954,
        "city": "Sonkád"
    },
    {
        "zip": 4955,
        "city": "Botpalád"
    },
    {
        "zip": 4956,
        "city": "Kispalád"
    },
    {
        "zip": 4961,
        "city": "Zsarolyán"
    },
    {
        "zip": 4962,
        "city": "Nagyszekeres"
    },
    {
        "zip": 4963,
        "city": "Kisszekeres"
    },
    {
        "zip": 4964,
        "city": "Fülesd"
    },
    {
        "zip": 4965,
        "city": "Kölcse"
    },
    {
        "zip": 4966,
        "city": "Vámosoroszi"
    },
    {
        "zip": 4967,
        "city": "Csaholc"
    },
    {
        "zip": 4968,
        "city": "Túrricse"
    },
    {
        "zip": 4969,
        "city": "Tisztaberek"
    },
    {
        "zip": 4971,
        "city": "Rozsály"
    },
    {
        "zip": 4972,
        "city": "Gacsály"
    },
    {
        "zip": 4973,
        "city": "Császló"
    },
    {
        "zip": 4974,
        "city": "Zajta"
    },
    {
        "zip": 4975,
        "city": "Méhtelek"
    },
    {
        "zip": 4976,
        "city": "Garbolc"
    },
    {
        "zip": 4977,
        "city": "Kishódos"
    },
    {
        "zip": 4977,
        "city": "Nagyhódos"
    },
    {
        "zip": 5000,
        "city": "Szolnok"
    },
    {
        "zip": 5001,
        "city": "Szolnok"
    },
    {
        "zip": 5002,
        "city": "Szolnok"
    },
    {
        "zip": 5003,
        "city": "Szolnok"
    },
    {
        "zip": 5004,
        "city": "Szolnok"
    },
    {
        "zip": 5005,
        "city": "Szolnok"
    },
    {
        "zip": 5006,
        "city": "Szolnok"
    },
    {
        "zip": 5007,
        "city": "Szolnok"
    },
    {
        "zip": 5008,
        "city": "Szolnok"
    },
    {
        "zip": 5009,
        "city": "Szolnok"
    },
    {
        "zip": 5051,
        "city": "Zagyvarékas"
    },
    {
        "zip": 5052,
        "city": "Újszász"
    },
    {
        "zip": 5053,
        "city": "Szászberek"
    },
    {
        "zip": 5054,
        "city": "Jászalsószentgyörgy"
    },
    {
        "zip": 5055,
        "city": "Jászladány"
    },
    {
        "zip": 5061,
        "city": "Tiszasüly"
    },
    {
        "zip": 5062,
        "city": "Kőtelek"
    },
    {
        "zip": 5063,
        "city": "Hunyadfalva"
    },
    {
        "zip": 5064,
        "city": "Csataszög"
    },
    {
        "zip": 5065,
        "city": "Nagykörű"
    },
    {
        "zip": 5071,
        "city": "Besenyszög"
    },
    {
        "zip": 5081,
        "city": "Szajol"
    },
    {
        "zip": 5082,
        "city": "Tiszatenyő"
    },
    {
        "zip": 5083,
        "city": "Kengyel"
    },
    {
        "zip": 5084,
        "city": "Rákócziújfalu"
    },
    {
        "zip": 5085,
        "city": "Rákóczifalva"
    },
    {
        "zip": 5091,
        "city": "Tószeg"
    },
    {
        "zip": 5092,
        "city": "Tiszavárkony"
    },
    {
        "zip": 5093,
        "city": "Vezseny"
    },
    {
        "zip": 5094,
        "city": "Tiszajenő"
    },
    {
        "zip": 5095,
        "city": "Tiszajenő"
    },
    {
        "zip": 5100,
        "city": "Jászberény"
    },
    {
        "zip": 5101,
        "city": "Jászberény"
    },
    {
        "zip": 5102,
        "city": "Jászberény"
    },
    {
        "zip": 5111,
        "city": "Jászfelsőszentgyörgy"
    },
    {
        "zip": 5121,
        "city": "Jászjákóhalma"
    },
    {
        "zip": 5122,
        "city": "Jászdózsa"
    },
    {
        "zip": 5123,
        "city": "Jászárokszállás"
    },
    {
        "zip": 5124,
        "city": "Jászágó"
    },
    {
        "zip": 5125,
        "city": "Pusztamonostor"
    },
    {
        "zip": 5126,
        "city": "Jászfényszaru"
    },
    {
        "zip": 5130,
        "city": "Jászapáti"
    },
    {
        "zip": 5131,
        "city": "Jászapáti"
    },
    {
        "zip": 5135,
        "city": "Jászivány"
    },
    {
        "zip": 5136,
        "city": "Jászszentandrás"
    },
    {
        "zip": 5137,
        "city": "Jászkisér"
    },
    {
        "zip": 5141,
        "city": "Jásztelek"
    },
    {
        "zip": 5142,
        "city": "Alattyán"
    },
    {
        "zip": 5143,
        "city": "Jánoshida"
    },
    {
        "zip": 5144,
        "city": "Jászboldogháza"
    },
    {
        "zip": 5152,
        "city": "Jászboldogháza"
    },
    {
        "zip": 5200,
        "city": "Törökszentmiklós"
    },
    {
        "zip": 5201,
        "city": "Törökszentmiklós"
    },
    {
        "zip": 5211,
        "city": "Tiszapüspöki"
    },
    {
        "zip": 5212,
        "city": "Tiszapüspöki"
    },
    {
        "zip": 5213,
        "city": "Tiszapüspöki"
    },
    {
        "zip": 5222,
        "city": "Örményes"
    },
    {
        "zip": 5231,
        "city": "Fegyvernek"
    },
    {
        "zip": 5232,
        "city": "Tiszabő"
    },
    {
        "zip": 5233,
        "city": "Tiszagyenda"
    },
    {
        "zip": 5234,
        "city": "Tiszaroff"
    },
    {
        "zip": 5235,
        "city": "Tiszabura"
    },
    {
        "zip": 5241,
        "city": "Abádszalók"
    },
    {
        "zip": 5243,
        "city": "Tiszaderzs"
    },
    {
        "zip": 5244,
        "city": "Tiszaszőlős"
    },
    {
        "zip": 5300,
        "city": "Karcag"
    },
    {
        "zip": 5301,
        "city": "Karcag"
    },
    {
        "zip": 5302,
        "city": "Karcag"
    },
    {
        "zip": 5309,
        "city": "Berekfürdő"
    },
    {
        "zip": 5310,
        "city": "Kisújszállás"
    },
    {
        "zip": 5311,
        "city": "Kisújszállás"
    },
    {
        "zip": 5321,
        "city": "Kunmadaras"
    },
    {
        "zip": 5322,
        "city": "Tiszaszentimre"
    },
    {
        "zip": 5323,
        "city": "Tiszaszentimre"
    },
    {
        "zip": 5324,
        "city": "Tomajmonostora"
    },
    {
        "zip": 5331,
        "city": "Kenderes"
    },
    {
        "zip": 5340,
        "city": "Kunhegyes"
    },
    {
        "zip": 5341,
        "city": "Kunhegyes"
    },
    {
        "zip": 5349,
        "city": "Kunhegyes"
    },
    {
        "zip": 5350,
        "city": "Tiszafüred"
    },
    {
        "zip": 5351,
        "city": "Tiszafüred"
    },
    {
        "zip": 5358,
        "city": "Tiszafüred"
    },
    {
        "zip": 5359,
        "city": "Tiszafüred"
    },
    {
        "zip": 5361,
        "city": "Tiszaigar"
    },
    {
        "zip": 5362,
        "city": "Tiszaörs"
    },
    {
        "zip": 5363,
        "city": "Nagyiván"
    },
    {
        "zip": 5400,
        "city": "Mezőtúr"
    },
    {
        "zip": 5401,
        "city": "Mezőtúr"
    },
    {
        "zip": 5403,
        "city": "Mezőtúr"
    },
    {
        "zip": 5404,
        "city": "Mezőtúr"
    },
    {
        "zip": 5411,
        "city": "Kétpó"
    },
    {
        "zip": 5412,
        "city": "Kuncsorba"
    },
    {
        "zip": 5420,
        "city": "Túrkeve"
    },
    {
        "zip": 5421,
        "city": "Túrkeve"
    },
    {
        "zip": 5430,
        "city": "Tiszaföldvár"
    },
    {
        "zip": 5431,
        "city": "Tiszaföldvár"
    },
    {
        "zip": 5432,
        "city": "Tiszaföldvár"
    },
    {
        "zip": 5435,
        "city": "Martfű"
    },
    {
        "zip": 5440,
        "city": "Kunszentmárton"
    },
    {
        "zip": 5441,
        "city": "Kunszentmárton"
    },
    {
        "zip": 5449,
        "city": "Kunszentmárton"
    },
    {
        "zip": 5451,
        "city": "Öcsöd"
    },
    {
        "zip": 5452,
        "city": "Mesterszállás"
    },
    {
        "zip": 5453,
        "city": "Mezőhék"
    },
    {
        "zip": 5461,
        "city": "Mezőhék"
    },
    {
        "zip": 5462,
        "city": "Cibakháza"
    },
    {
        "zip": 5463,
        "city": "Nagyrév"
    },
    {
        "zip": 5464,
        "city": "Tiszainoka"
    },
    {
        "zip": 5465,
        "city": "Cserkeszőlő"
    },
    {
        "zip": 5471,
        "city": "Tiszakürt"
    },
    {
        "zip": 5473,
        "city": "Tiszaug"
    },
    {
        "zip": 5474,
        "city": "Tiszasas"
    },
    {
        "zip": 5475,
        "city": "Csépa"
    },
    {
        "zip": 5476,
        "city": "Szelevény"
    },
    {
        "zip": 5500,
        "city": "Gyomaendrőd"
    },
    {
        "zip": 5501,
        "city": "Gyomaendrőd"
    },
    {
        "zip": 5502,
        "city": "Gyomaendrőd"
    },
    {
        "zip": 5510,
        "city": "Dévaványa"
    },
    {
        "zip": 5515,
        "city": "Ecsegfalva"
    },
    {
        "zip": 5516,
        "city": "Körösladány"
    },
    {
        "zip": 5520,
        "city": "Szeghalom"
    },
    {
        "zip": 5521,
        "city": "Szeghalom"
    },
    {
        "zip": 5525,
        "city": "Füzesgyarmat"
    },
    {
        "zip": 5526,
        "city": "Kertészsziget"
    },
    {
        "zip": 5527,
        "city": "Bucsa"
    },
    {
        "zip": 5530,
        "city": "Vésztő"
    },
    {
        "zip": 5534,
        "city": "Okány"
    },
    {
        "zip": 5536,
        "city": "Körösújfalu"
    },
    {
        "zip": 5537,
        "city": "Zsadány"
    },
    {
        "zip": 5538,
        "city": "Biharugra"
    },
    {
        "zip": 5539,
        "city": "Körösnagyharsány"
    },
    {
        "zip": 5540,
        "city": "Szarvas"
    },
    {
        "zip": 5541,
        "city": "Szarvas"
    },
    {
        "zip": 5551,
        "city": "Csabacsűd"
    },
    {
        "zip": 5552,
        "city": "Kardos"
    },
    {
        "zip": 5553,
        "city": "Kondoros"
    },
    {
        "zip": 5555,
        "city": "Hunya"
    },
    {
        "zip": 5556,
        "city": "Örménykút"
    },
    {
        "zip": 5561,
        "city": "Békésszentandrás"
    },
    {
        "zip": 5600,
        "city": "Békéscsaba"
    },
    {
        "zip": 5601,
        "city": "Békéscsaba"
    },
    {
        "zip": 5602,
        "city": "Békéscsaba"
    },
    {
        "zip": 5603,
        "city": "Békéscsaba"
    },
    {
        "zip": 5604,
        "city": "Békéscsaba"
    },
    {
        "zip": 5605,
        "city": "Békéscsaba"
    },
    {
        "zip": 5609,
        "city": "Csabaszabadi"
    },
    {
        "zip": 5621,
        "city": "Csárdaszállás"
    },
    {
        "zip": 5622,
        "city": "Köröstarcsa"
    },
    {
        "zip": 5623,
        "city": "Köröstarcsa"
    },
    {
        "zip": 5624,
        "city": "Doboz"
    },
    {
        "zip": 5630,
        "city": "Békés"
    },
    {
        "zip": 5631,
        "city": "Békés"
    },
    {
        "zip": 5641,
        "city": "Tarhos"
    },
    {
        "zip": 5643,
        "city": "Bélmegyer"
    },
    {
        "zip": 5650,
        "city": "Mezőberény"
    },
    {
        "zip": 5661,
        "city": "Újkígyós"
    },
    {
        "zip": 5662,
        "city": "Csanádapáca"
    },
    {
        "zip": 5663,
        "city": "Medgyesbodzás"
    },
    {
        "zip": 5664,
        "city": "Medgyesbodzás"
    },
    {
        "zip": 5665,
        "city": "Pusztaottlaka"
    },
    {
        "zip": 5666,
        "city": "Medgyesegyháza"
    },
    {
        "zip": 5667,
        "city": "Magyarbánhegyes"
    },
    {
        "zip": 5668,
        "city": "Nagybánhegyes"
    },
    {
        "zip": 5671,
        "city": "Nagybánhegyes"
    },
    {
        "zip": 5672,
        "city": "Murony"
    },
    {
        "zip": 5673,
        "city": "Kamut"
    },
    {
        "zip": 5674,
        "city": "Kétsoprony"
    },
    {
        "zip": 5675,
        "city": "Telekgerendás"
    },
    {
        "zip": 5700,
        "city": "Gyula"
    },
    {
        "zip": 5701,
        "city": "Gyula"
    },
    {
        "zip": 5702,
        "city": "Gyula"
    },
    {
        "zip": 5703,
        "city": "Gyula"
    },
    {
        "zip": 5711,
        "city": "Gyula"
    },
    {
        "zip": 5712,
        "city": "Szabadkígyós"
    },
    {
        "zip": 5720,
        "city": "Sarkad"
    },
    {
        "zip": 5721,
        "city": "Sarkad"
    },
    {
        "zip": 5722,
        "city": "Sarkad"
    },
    {
        "zip": 5725,
        "city": "Kötegyán"
    },
    {
        "zip": 5726,
        "city": "Méhkerék"
    },
    {
        "zip": 5727,
        "city": "Újszalonta"
    },
    {
        "zip": 5731,
        "city": "Sarkadkeresztúr"
    },
    {
        "zip": 5732,
        "city": "Mezőgyán"
    },
    {
        "zip": 5734,
        "city": "Geszt"
    },
    {
        "zip": 5741,
        "city": "Kétegyháza"
    },
    {
        "zip": 5742,
        "city": "Elek"
    },
    {
        "zip": 5743,
        "city": "Lőkösháza"
    },
    {
        "zip": 5744,
        "city": "Kevermes"
    },
    {
        "zip": 5745,
        "city": "Dombiratos"
    },
    {
        "zip": 5746,
        "city": "Kunágota"
    },
    {
        "zip": 5747,
        "city": "Almáskamarás"
    },
    {
        "zip": 5751,
        "city": "Nagykamarás"
    },
    {
        "zip": 5752,
        "city": "Nagykamarás"
    },
    {
        "zip": 5800,
        "city": "Mezőkovácsháza"
    },
    {
        "zip": 5801,
        "city": "Mezőkovácsháza"
    },
    {
        "zip": 5802,
        "city": "Mezőkovácsháza"
    },
    {
        "zip": 5811,
        "city": "Végegyháza"
    },
    {
        "zip": 5820,
        "city": "Mezőhegyes"
    },
    {
        "zip": 5830,
        "city": "Battonya"
    },
    {
        "zip": 5836,
        "city": "Dombegyház"
    },
    {
        "zip": 5837,
        "city": "Kisdombegyház"
    },
    {
        "zip": 5838,
        "city": "Magyardombegyház"
    },
    {
        "zip": 5900,
        "city": "Orosháza"
    },
    {
        "zip": 5901,
        "city": "Orosháza"
    },
    {
        "zip": 5902,
        "city": "Orosháza"
    },
    {
        "zip": 5903,
        "city": "Orosháza"
    },
    {
        "zip": 5904,
        "city": "Orosháza"
    },
    {
        "zip": 5905,
        "city": "Orosháza"
    },
    {
        "zip": 5919,
        "city": "Pusztaföldvár"
    },
    {
        "zip": 5920,
        "city": "Csorvás"
    },
    {
        "zip": 5925,
        "city": "Gerendás"
    },
    {
        "zip": 5931,
        "city": "Nagyszénás"
    },
    {
        "zip": 5932,
        "city": "Gádoros"
    },
    {
        "zip": 5940,
        "city": "Tótkomlós"
    },
    {
        "zip": 5945,
        "city": "Kardoskút"
    },
    {
        "zip": 5946,
        "city": "Békéssámson"
    },
    {
        "zip": 5948,
        "city": "Kaszaper"
    },
    {
        "zip": 6000,
        "city": "Kecskemét"
    },
    {
        "zip": 6001,
        "city": "Kecskemét"
    },
    {
        "zip": 6002,
        "city": "Kecskemét"
    },
    {
        "zip": 6003,
        "city": "Kecskemét"
    },
    {
        "zip": 6004,
        "city": "Kecskemét"
    },
    {
        "zip": 6005,
        "city": "Kecskemét"
    },
    {
        "zip": 6006,
        "city": "Kecskemét"
    },
    {
        "zip": 6007,
        "city": "Kecskemét"
    },
    {
        "zip": 6008,
        "city": "Kecskemét"
    },
    {
        "zip": 6010,
        "city": "Kecskemét"
    },
    {
        "zip": 6031,
        "city": "Szentkirály"
    },
    {
        "zip": 6032,
        "city": "Nyárlőrinc"
    },
    {
        "zip": 6033,
        "city": "Városföld"
    },
    {
        "zip": 6034,
        "city": "Helvécia"
    },
    {
        "zip": 6035,
        "city": "Ballószög"
    },
    {
        "zip": 6041,
        "city": "Kerekegyháza"
    },
    {
        "zip": 6042,
        "city": "Fülöpháza"
    },
    {
        "zip": 6043,
        "city": "Kunbaracs"
    },
    {
        "zip": 6044,
        "city": "Kunbaracs"
    },
    {
        "zip": 6045,
        "city": "Ladánybene"
    },
    {
        "zip": 6050,
        "city": "Lajosmizse"
    },
    {
        "zip": 6055,
        "city": "Felsőlajos"
    },
    {
        "zip": 6060,
        "city": "Tiszakécske"
    },
    {
        "zip": 6061,
        "city": "Tiszakécske"
    },
    {
        "zip": 6062,
        "city": "Tiszakécske"
    },
    {
        "zip": 6063,
        "city": "Tiszakécske"
    },
    {
        "zip": 6064,
        "city": "Tiszaug"
    },
    {
        "zip": 6065,
        "city": "Lakitelek"
    },
    {
        "zip": 6066,
        "city": "Tiszaalpár"
    },
    {
        "zip": 6067,
        "city": "Tiszaalpár"
    },
    {
        "zip": 6070,
        "city": "Izsák"
    },
    {
        "zip": 6075,
        "city": "Páhi"
    },
    {
        "zip": 6076,
        "city": "Ágasegyháza"
    },
    {
        "zip": 6077,
        "city": "Orgovány"
    },
    {
        "zip": 6078,
        "city": "Jakabszállás"
    },
    {
        "zip": 6080,
        "city": "Szabadszállás"
    },
    {
        "zip": 6085,
        "city": "Fülöpszállás"
    },
    {
        "zip": 6086,
        "city": "Szalkszentmárton"
    },
    {
        "zip": 6087,
        "city": "Dunavecse"
    },
    {
        "zip": 6088,
        "city": "Apostag"
    },
    {
        "zip": 6090,
        "city": "Kunszentmiklós"
    },
    {
        "zip": 6093,
        "city": "Kunszentmiklós"
    },
    {
        "zip": 6096,
        "city": "Kunpeszér"
    },
    {
        "zip": 6097,
        "city": "Kunadacs"
    },
    {
        "zip": 6098,
        "city": "Tass"
    },
    {
        "zip": 6100,
        "city": "Kiskunfélegyháza"
    },
    {
        "zip": 6101,
        "city": "Kiskunfélegyháza"
    },
    {
        "zip": 6102,
        "city": "Kiskunfélegyháza"
    },
    {
        "zip": 6111,
        "city": "Gátér"
    },
    {
        "zip": 6112,
        "city": "Pálmonostora"
    },
    {
        "zip": 6113,
        "city": "Petőfiszállás"
    },
    {
        "zip": 6114,
        "city": "Bugac"
    },
    {
        "zip": 6114,
        "city": "Bugacpusztaháza"
    },
    {
        "zip": 6115,
        "city": "Kunszállás"
    },
    {
        "zip": 6116,
        "city": "Fülöpjakab"
    },
    {
        "zip": 6120,
        "city": "Kiskunmajsa"
    },
    {
        "zip": 6131,
        "city": "Szank"
    },
    {
        "zip": 6132,
        "city": "Móricgát"
    },
    {
        "zip": 6133,
        "city": "Jászszentlászló"
    },
    {
        "zip": 6134,
        "city": "Kömpöc"
    },
    {
        "zip": 6135,
        "city": "Csólyospálos"
    },
    {
        "zip": 6136,
        "city": "Harkakötöny"
    },
    {
        "zip": 6200,
        "city": "Kiskőrös"
    },
    {
        "zip": 6201,
        "city": "Kiskőrös"
    },
    {
        "zip": 6211,
        "city": "Kaskantyú"
    },
    {
        "zip": 6221,
        "city": "Akasztó"
    },
    {
        "zip": 6222,
        "city": "Csengőd"
    },
    {
        "zip": 6223,
        "city": "Soltszentimre"
    },
    {
        "zip": 6224,
        "city": "Tabdi"
    },
    {
        "zip": 6230,
        "city": "Soltvadkert"
    },
    {
        "zip": 6235,
        "city": "Bócsa"
    },
    {
        "zip": 6236,
        "city": "Tázlár"
    },
    {
        "zip": 6237,
        "city": "Kecel"
    },
    {
        "zip": 6238,
        "city": "Imrehegy"
    },
    {
        "zip": 6239,
        "city": "Császártöltés"
    },
    {
        "zip": 6300,
        "city": "Kalocsa"
    },
    {
        "zip": 6301,
        "city": "Kalocsa"
    },
    {
        "zip": 6311,
        "city": "Öregcsertő"
    },
    {
        "zip": 6320,
        "city": "Solt"
    },
    {
        "zip": 6321,
        "city": "Újsolt"
    },
    {
        "zip": 6323,
        "city": "Dunaegyháza"
    },
    {
        "zip": 6325,
        "city": "Dunatetétlen"
    },
    {
        "zip": 6326,
        "city": "Harta"
    },
    {
        "zip": 6327,
        "city": "Harta"
    },
    {
        "zip": 6328,
        "city": "Dunapataj"
    },
    {
        "zip": 6331,
        "city": "Foktő"
    },
    {
        "zip": 6332,
        "city": "Uszód"
    },
    {
        "zip": 6333,
        "city": "Dunaszentbenedek"
    },
    {
        "zip": 6334,
        "city": "Géderlak"
    },
    {
        "zip": 6335,
        "city": "Ordas"
    },
    {
        "zip": 6336,
        "city": "Szakmár"
    },
    {
        "zip": 6337,
        "city": "Újtelek"
    },
    {
        "zip": 6341,
        "city": "Homokmégy"
    },
    {
        "zip": 6342,
        "city": "Drágszél"
    },
    {
        "zip": 6343,
        "city": "Miske"
    },
    {
        "zip": 6344,
        "city": "Hajós"
    },
    {
        "zip": 6345,
        "city": "Nemesnádudvar"
    },
    {
        "zip": 6346,
        "city": "Sükösd"
    },
    {
        "zip": 6347,
        "city": "Érsekcsanád"
    },
    {
        "zip": 6348,
        "city": "Érsekhalma"
    },
    {
        "zip": 6351,
        "city": "Bátya"
    },
    {
        "zip": 6352,
        "city": "Fajsz"
    },
    {
        "zip": 6353,
        "city": "Dusnok"
    },
    {
        "zip": 6400,
        "city": "Kiskunhalas"
    },
    {
        "zip": 6401,
        "city": "Kiskunhalas"
    },
    {
        "zip": 6402,
        "city": "Kiskunhalas"
    },
    {
        "zip": 6411,
        "city": "Zsana"
    },
    {
        "zip": 6412,
        "city": "Balotaszállás"
    },
    {
        "zip": 6413,
        "city": "Kunfehértó"
    },
    {
        "zip": 6414,
        "city": "Pirtó"
    },
    {
        "zip": 6421,
        "city": "Kisszállás"
    },
    {
        "zip": 6422,
        "city": "Tompa"
    },
    {
        "zip": 6423,
        "city": "Kelebia"
    },
    {
        "zip": 6424,
        "city": "Csikéria"
    },
    {
        "zip": 6425,
        "city": "Bácsszőlős"
    },
    {
        "zip": 6430,
        "city": "Bácsalmás"
    },
    {
        "zip": 6435,
        "city": "Kunbaja"
    },
    {
        "zip": 6440,
        "city": "Jánoshalma"
    },
    {
        "zip": 6444,
        "city": "Kéleshalom"
    },
    {
        "zip": 6445,
        "city": "Borota"
    },
    {
        "zip": 6446,
        "city": "Rém"
    },
    {
        "zip": 6447,
        "city": "Felsőszentiván"
    },
    {
        "zip": 6448,
        "city": "Csávoly"
    },
    {
        "zip": 6449,
        "city": "Mélykút"
    },
    {
        "zip": 6451,
        "city": "Tataháza"
    },
    {
        "zip": 6452,
        "city": "Mátételke"
    },
    {
        "zip": 6453,
        "city": "Bácsbokod"
    },
    {
        "zip": 6454,
        "city": "Bácsborsód"
    },
    {
        "zip": 6455,
        "city": "Katymár"
    },
    {
        "zip": 6456,
        "city": "Madaras"
    },
    {
        "zip": 6500,
        "city": "Baja"
    },
    {
        "zip": 6501,
        "city": "Baja"
    },
    {
        "zip": 6502,
        "city": "Baja"
    },
    {
        "zip": 6503,
        "city": "Baja"
    },
    {
        "zip": 6511,
        "city": "Bácsszentgyörgy"
    },
    {
        "zip": 6512,
        "city": "Szeremle"
    },
    {
        "zip": 6513,
        "city": "Dunafalva"
    },
    {
        "zip": 6521,
        "city": "Vaskút"
    },
    {
        "zip": 6522,
        "city": "Gara"
    },
    {
        "zip": 6523,
        "city": "Csátalja"
    },
    {
        "zip": 6524,
        "city": "Dávod"
    },
    {
        "zip": 6525,
        "city": "Hercegszántó"
    },
    {
        "zip": 6527,
        "city": "Nagybaracska"
    },
    {
        "zip": 6528,
        "city": "Bátmonostor"
    },
    {
        "zip": 6600,
        "city": "Szentes"
    },
    {
        "zip": 6601,
        "city": "Szentes"
    },
    {
        "zip": 6602,
        "city": "Szentes"
    },
    {
        "zip": 6603,
        "city": "Szentes"
    },
    {
        "zip": 6612,
        "city": "Nagytőke"
    },
    {
        "zip": 6621,
        "city": "Derekegyház"
    },
    {
        "zip": 6622,
        "city": "Nagymágocs"
    },
    {
        "zip": 6623,
        "city": "Árpádhalom"
    },
    {
        "zip": 6624,
        "city": "Eperjes"
    },
    {
        "zip": 6625,
        "city": "Fábiánsebestyén"
    },
    {
        "zip": 6630,
        "city": "Mindszent"
    },
    {
        "zip": 6635,
        "city": "Szegvár"
    },
    {
        "zip": 6636,
        "city": "Mártély"
    },
    {
        "zip": 6640,
        "city": "Csongrád"
    },
    {
        "zip": 6641,
        "city": "Csongrád"
    },
    {
        "zip": 6642,
        "city": "Csongrád"
    },
    {
        "zip": 6645,
        "city": "Felgyő"
    },
    {
        "zip": 6646,
        "city": "Tömörkény"
    },
    {
        "zip": 6647,
        "city": "Csanytelek"
    },
    {
        "zip": 6648,
        "city": "Csanytelek"
    },
    {
        "zip": 6700,
        "city": "Szeged"
    },
    {
        "zip": 6701,
        "city": "Szeged"
    },
    {
        "zip": 6702,
        "city": "Szeged"
    },
    {
        "zip": 6703,
        "city": "Szeged"
    },
    {
        "zip": 6704,
        "city": "Szeged"
    },
    {
        "zip": 6705,
        "city": "Szeged"
    },
    {
        "zip": 6706,
        "city": "Szeged"
    },
    {
        "zip": 6707,
        "city": "Szeged"
    },
    {
        "zip": 6708,
        "city": "Szeged"
    },
    {
        "zip": 6709,
        "city": "Szeged"
    },
    {
        "zip": 6710,
        "city": "Szeged"
    },
    {
        "zip": 6712,
        "city": "Szeged"
    },
    {
        "zip": 6713,
        "city": "Szeged"
    },
    {
        "zip": 6717,
        "city": "Szeged"
    },
    {
        "zip": 6718,
        "city": "Szeged"
    },
    {
        "zip": 6719,
        "city": "Szeged"
    },
    {
        "zip": 6720,
        "city": "Szeged"
    },
    {
        "zip": 6721,
        "city": "Szeged"
    },
    {
        "zip": 6722,
        "city": "Szeged"
    },
    {
        "zip": 6723,
        "city": "Szeged"
    },
    {
        "zip": 6724,
        "city": "Szeged"
    },
    {
        "zip": 6725,
        "city": "Szeged"
    },
    {
        "zip": 6726,
        "city": "Szeged"
    },
    {
        "zip": 6727,
        "city": "Szeged"
    },
    {
        "zip": 6728,
        "city": "Szeged"
    },
    {
        "zip": 6729,
        "city": "Szeged"
    },
    {
        "zip": 6740,
        "city": "Szeged"
    },
    {
        "zip": 6741,
        "city": "Szeged"
    },
    {
        "zip": 6742,
        "city": "Szeged"
    },
    {
        "zip": 6743,
        "city": "Szeged"
    },
    {
        "zip": 6744,
        "city": "Szeged"
    },
    {
        "zip": 6745,
        "city": "Szeged"
    },
    {
        "zip": 6746,
        "city": "Szeged"
    },
    {
        "zip": 6747,
        "city": "Szeged"
    },
    {
        "zip": 6748,
        "city": "Szeged"
    },
    {
        "zip": 6750,
        "city": "Algyő"
    },
    {
        "zip": 6750,
        "city": "Szeged"
    },
    {
        "zip": 6753,
        "city": "Algyő"
    },
    {
        "zip": 6753,
        "city": "Szeged"
    },
    {
        "zip": 6754,
        "city": "Újszentiván"
    },
    {
        "zip": 6755,
        "city": "Kübekháza"
    },
    {
        "zip": 6756,
        "city": "Tiszasziget"
    },
    {
        "zip": 6757,
        "city": "Tiszasziget"
    },
    {
        "zip": 6757,
        "city": "Szeged"
    },
    {
        "zip": 6758,
        "city": "Röszke"
    },
    {
        "zip": 6760,
        "city": "Kistelek"
    },
    {
        "zip": 6762,
        "city": "Sándorfalva"
    },
    {
        "zip": 6763,
        "city": "Szatymaz"
    },
    {
        "zip": 6764,
        "city": "Balástya"
    },
    {
        "zip": 6765,
        "city": "Csengele"
    },
    {
        "zip": 6766,
        "city": "Dóc"
    },
    {
        "zip": 6767,
        "city": "Ópusztaszer"
    },
    {
        "zip": 6768,
        "city": "Baks"
    },
    {
        "zip": 6769,
        "city": "Pusztaszer"
    },
    {
        "zip": 6771,
        "city": "Pusztaszer"
    },
    {
        "zip": 6771,
        "city": "Szeged"
    },
    {
        "zip": 6772,
        "city": "Deszk"
    },
    {
        "zip": 6773,
        "city": "Klárafalva"
    },
    {
        "zip": 6774,
        "city": "Ferencszállás"
    },
    {
        "zip": 6775,
        "city": "Kiszombor"
    },
    {
        "zip": 6781,
        "city": "Domaszék"
    },
    {
        "zip": 6782,
        "city": "Mórahalom"
    },
    {
        "zip": 6783,
        "city": "Ásotthalom"
    },
    {
        "zip": 6784,
        "city": "Öttömös"
    },
    {
        "zip": 6785,
        "city": "Pusztamérges"
    },
    {
        "zip": 6786,
        "city": "Ruzsa"
    },
    {
        "zip": 6787,
        "city": "Zákányszék"
    },
    {
        "zip": 6791,
        "city": "Szeged"
    },
    {
        "zip": 6791,
        "city": "Zákányszék"
    },
    {
        "zip": 6792,
        "city": "Zsombó"
    },
    {
        "zip": 6793,
        "city": "Forráskút"
    },
    {
        "zip": 6794,
        "city": "Üllés"
    },
    {
        "zip": 6795,
        "city": "Bordány"
    },
    {
        "zip": 6800,
        "city": "Hódmezővásárhely"
    },
    {
        "zip": 6801,
        "city": "Hódmezővásárhely"
    },
    {
        "zip": 6802,
        "city": "Hódmezővásárhely"
    },
    {
        "zip": 6803,
        "city": "Hódmezővásárhely"
    },
    {
        "zip": 6804,
        "city": "Hódmezővásárhely"
    },
    {
        "zip": 6806,
        "city": "Hódmezővásárhely"
    },
    {
        "zip": 6808,
        "city": "Hódmezővásárhely"
    },
    {
        "zip": 6811,
        "city": "Hódmezővásárhely"
    },
    {
        "zip": 6821,
        "city": "Székkutas"
    },
    {
        "zip": 6900,
        "city": "Makó"
    },
    {
        "zip": 6901,
        "city": "Makó"
    },
    {
        "zip": 6902,
        "city": "Makó"
    },
    {
        "zip": 6903,
        "city": "Makó"
    },
    {
        "zip": 6911,
        "city": "Királyhegyes"
    },
    {
        "zip": 6912,
        "city": "Kövegy"
    },
    {
        "zip": 6913,
        "city": "Csanádpalota"
    },
    {
        "zip": 6914,
        "city": "Pitvaros"
    },
    {
        "zip": 6915,
        "city": "Csanádalberti"
    },
    {
        "zip": 6916,
        "city": "Ambrózfalva"
    },
    {
        "zip": 6917,
        "city": "Nagyér"
    },
    {
        "zip": 6921,
        "city": "Maroslele"
    },
    {
        "zip": 6922,
        "city": "Földeák"
    },
    {
        "zip": 6923,
        "city": "Óföldeák"
    },
    {
        "zip": 6931,
        "city": "Apátfalva"
    },
    {
        "zip": 6932,
        "city": "Magyarcsanád"
    },
    {
        "zip": 6933,
        "city": "Nagylak"
    },
    {
        "zip": 7000,
        "city": "Sárbogárd"
    },
    {
        "zip": 7001,
        "city": "Sárbogárd"
    },
    {
        "zip": 7002,
        "city": "Sárbogárd"
    },
    {
        "zip": 7003,
        "city": "Sárbogárd"
    },
    {
        "zip": 7011,
        "city": "Alap"
    },
    {
        "zip": 7012,
        "city": "Alsószentiván"
    },
    {
        "zip": 7013,
        "city": "Cece"
    },
    {
        "zip": 7014,
        "city": "Sáregres"
    },
    {
        "zip": 7015,
        "city": "Igar"
    },
    {
        "zip": 7016,
        "city": "Igar"
    },
    {
        "zip": 7017,
        "city": "Mezőszilas"
    },
    {
        "zip": 7018,
        "city": "Mezőszilas"
    },
    {
        "zip": 7019,
        "city": "Mezőszilas"
    },
    {
        "zip": 7020,
        "city": "Dunaföldvár"
    },
    {
        "zip": 7021,
        "city": "Dunaföldvár"
    },
    {
        "zip": 7025,
        "city": "Bölcske"
    },
    {
        "zip": 7026,
        "city": "Madocsa"
    },
    {
        "zip": 7027,
        "city": "Madocsa"
    },
    {
        "zip": 7030,
        "city": "Paks"
    },
    {
        "zip": 7031,
        "city": "Paks"
    },
    {
        "zip": 7032,
        "city": "Paks"
    },
    {
        "zip": 7038,
        "city": "Pusztahencse"
    },
    {
        "zip": 7039,
        "city": "Németkér"
    },
    {
        "zip": 7041,
        "city": "Vajta"
    },
    {
        "zip": 7042,
        "city": "Pálfa"
    },
    {
        "zip": 7043,
        "city": "Bikács"
    },
    {
        "zip": 7044,
        "city": "Nagydorog"
    },
    {
        "zip": 7045,
        "city": "Györköny"
    },
    {
        "zip": 7047,
        "city": "Sárszentlőrinc"
    },
    {
        "zip": 7051,
        "city": "Kajdacs"
    },
    {
        "zip": 7052,
        "city": "Kölesd"
    },
    {
        "zip": 7054,
        "city": "Tengelic"
    },
    {
        "zip": 7056,
        "city": "Szedres"
    },
    {
        "zip": 7057,
        "city": "Medina"
    },
    {
        "zip": 7061,
        "city": "Belecska"
    },
    {
        "zip": 7062,
        "city": "Keszőhidegkút"
    },
    {
        "zip": 7063,
        "city": "Szárazd"
    },
    {
        "zip": 7064,
        "city": "Gyönk"
    },
    {
        "zip": 7065,
        "city": "Miszla"
    },
    {
        "zip": 7066,
        "city": "Udvari"
    },
    {
        "zip": 7067,
        "city": "Varsád"
    },
    {
        "zip": 7068,
        "city": "Kistormás"
    },
    {
        "zip": 7071,
        "city": "Szakadát"
    },
    {
        "zip": 7072,
        "city": "Diósberény"
    },
    {
        "zip": 7081,
        "city": "Simontornya"
    },
    {
        "zip": 7082,
        "city": "Kisszékely"
    },
    {
        "zip": 7083,
        "city": "Tolnanémedi"
    },
    {
        "zip": 7084,
        "city": "Pincehely"
    },
    {
        "zip": 7085,
        "city": "Nagyszékely"
    },
    {
        "zip": 7086,
        "city": "Ozora"
    },
    {
        "zip": 7087,
        "city": "Fürged"
    },
    {
        "zip": 7090,
        "city": "Tamási"
    },
    {
        "zip": 7091,
        "city": "Tamási"
    },
    {
        "zip": 7092,
        "city": "Nagykónyi"
    },
    {
        "zip": 7093,
        "city": "Értény"
    },
    {
        "zip": 7094,
        "city": "Koppányszántó"
    },
    {
        "zip": 7095,
        "city": "Iregszemcse"
    },
    {
        "zip": 7095,
        "city": "Újireg"
    },
    {
        "zip": 7097,
        "city": "Nagyszokoly"
    },
    {
        "zip": 7098,
        "city": "Magyarkeszi"
    },
    {
        "zip": 7099,
        "city": "Felsőnyék"
    },
    {
        "zip": 7100,
        "city": "Szekszárd"
    },
    {
        "zip": 7101,
        "city": "Szekszárd"
    },
    {
        "zip": 7102,
        "city": "Szekszárd"
    }
]